[
  {
    "id": 1,
    "libid": "1",
    "name": "Central Library Consortium",
    "address": "101 S. Stygler Rd",
    "city": "Columbus",
    "state": "OH",
    "zip": 43230,
    "seo": "",
    "hub": "COL",
    "routeid": "17-02"
  },
  {
    "id": 2,
    "libid": "100",
    "name": "Ada P. L.",
    "address": "320 N Main Street",
    "city": "Ada",
    "state": "OH",
    "zip": 45810,
    "seo": "ADA",
    "hub": "DAY",
    "routeid": "16-09"
  },
  {
    "id": 3,
    "libid": "122",
    "name": "Lepper Library",
    "address": "303 East Lincoln Way",
    "city": "Lisbon",
    "state": "OH",
    "zip": 44432,
    "seo": "",
    "hub": "AKR",
    "routeid": "20-27"
  },
  {
    "id": 4,
    "libid": "200",
    "name": "Akron-Summit County P.L.",
    "address": "60 S High Street",
    "city": "Akron",
    "state": "OH",
    "zip": 44326,
    "seo": "",
    "hub": "AKR",
    "routeid": "21-18"
  },
  {
    "id": 5,
    "libid": "201",
    "name": "Perry Cook Memorial Library",
    "address": "7406 County Road 242",
    "city": "Mt. Gilead",
    "state": "OH",
    "zip": 43338,
    "seo": "PKM",
    "hub": "COL",
    "routeid": "18-18"
  },
  {
    "id": 6,
    "libid": "400",
    "name": "Alger Public Library",
    "address": "100 West Wagner Street",
    "city": "Alger",
    "state": "OH",
    "zip": 45812,
    "seo": "ALG",
    "hub": "DAY",
    "routeid": "16-14"
  },
  {
    "id": 7,
    "libid": "500",
    "name": "Rodman Public Library",
    "address": "215 East Broadway St",
    "city": "Alliance",
    "state": "OH",
    "zip": 44601,
    "seo": "ROD",
    "hub": "AKR",
    "routeid": "20-17"
  },
  {
    "id": 8,
    "libid": "500",
    "name": "Rodman Branch Library",
    "address": "215 East Broadway St",
    "city": "Alliance",
    "state": "OH",
    "zip": 44601,
    "seo": "ROB",
    "hub": "AKR",
    "routeid": "20-17"
  },
  {
    "id": 9,
    "libid": "500",
    "name": "Rodman Bookmobile",
    "address": "215 East Broadway St",
    "city": "Alliance",
    "state": "OH",
    "zip": 44601,
    "seo": "ROK",
    "hub": "AKR",
    "routeid": "20-17"
  },
  {
    "id": 10,
    "libid": "600",
    "name": "Amherst Public Library",
    "address": "221 Spring Street",
    "city": "Amherst",
    "state": "OH",
    "zip": 44001,
    "seo": "",
    "hub": "CLE",
    "routeid": "10-26"
  },
  {
    "id": 11,
    "libid": "700",
    "name": "Andover P. L.",
    "address": "142 W. Main St. POB 1210",
    "city": "Andover",
    "state": "OH",
    "zip": 44003,
    "seo": "",
    "hub": "CLE",
    "routeid": "09-05"
  },
  {
    "id": 12,
    "libid": "700",
    "name": "Pymatuning Valley",
    "address": "142 W. Main St. POB 1210",
    "city": "Andover",
    "state": "OH",
    "zip": 44003,
    "seo": "ADP",
    "hub": "CLE",
    "routeid": "09-05"
  },
  {
    "id": 13,
    "libid": "800",
    "name": "Arcanum P. L.",
    "address": "101 North Street",
    "city": "Arcanum",
    "state": "OH",
    "zip": 45304,
    "seo": "",
    "hub": "DAY",
    "routeid": "15-24"
  },
  {
    "id": 14,
    "libid": "900",
    "name": "Archbold Community Library",
    "address": "205 Stryker Street",
    "city": "Archbold",
    "state": "OH",
    "zip": 43502,
    "seo": "",
    "hub": "TOL",
    "routeid": "12-24"
  },
  {
    "id": 15,
    "libid": "1000",
    "name": "Ashland P.L.",
    "address": "224 Claremont Avenue",
    "city": "Ashland",
    "state": "OH",
    "zip": 44805,
    "seo": "ASH",
    "hub": "COL",
    "routeid": "18-07"
  },
  {
    "id": 16,
    "libid": "1000",
    "name": "Ashland Bookmobile",
    "address": "224 Claremont Avenue",
    "city": "Ashland",
    "state": "OH",
    "zip": 44805,
    "seo": "ASB",
    "hub": "COL",
    "routeid": "18-07"
  },
  {
    "id": 17,
    "libid": "1100",
    "name": "Wornstaff Memorial P.L.",
    "address": "302 East High Street",
    "city": "Ashley",
    "state": "OH",
    "zip": 43003,
    "seo": "",
    "hub": "COL",
    "routeid": "17-21"
  },
  {
    "id": 18,
    "libid": "1200",
    "name": "Ashtabula Co. Dist. Library",
    "address": "4335 Park Avenue",
    "city": "Ashtabula",
    "state": "OH",
    "zip": 44004,
    "seo": "ADL",
    "hub": "CLE",
    "routeid": "08-07"
  },
  {
    "id": 19,
    "libid": "1200",
    "name": "Lakeside Junior High",
    "address": "4335 Park Avenue",
    "city": "Ashtabula",
    "state": "OH",
    "zip": 44004,
    "seo": "ADI",
    "hub": "CLE",
    "routeid": "08-07"
  },
  {
    "id": 20,
    "libid": "1200",
    "name": "Lakeside High School",
    "address": "4335 Park Avenue",
    "city": "Ashtabula",
    "state": "OH",
    "zip": 44004,
    "seo": "ADK",
    "hub": "CLE",
    "routeid": "08-07"
  },
  {
    "id": 21,
    "libid": "1200",
    "name": "Grand River Academy",
    "address": "4335 Park Avenue",
    "city": "Ashtabula",
    "state": "OH",
    "zip": 44004,
    "seo": "ADR",
    "hub": "CLE",
    "routeid": "08-07"
  },
  {
    "id": 22,
    "libid": "1200",
    "name": "Edgewood High School",
    "address": "4335 Park Avenue",
    "city": "Ashtabula",
    "state": "OH",
    "zip": 44004,
    "seo": "ADE",
    "hub": "CLE",
    "routeid": "08-07"
  },
  {
    "id": 23,
    "libid": "1203",
    "name": "Geneva Public Library",
    "address": "860 Sherman Street",
    "city": "Geneva",
    "state": "OH",
    "zip": 44041,
    "seo": "ADG",
    "hub": "CLE",
    "routeid": "08-23"
  },
  {
    "id": 24,
    "libid": "1203",
    "name": "Ashtabula Co. Bookmobile",
    "address": "860 Sherman Street",
    "city": "Geneva",
    "state": "OH",
    "zip": 44041,
    "seo": "ADB",
    "hub": "CLE",
    "routeid": "08-23"
  },
  {
    "id": 25,
    "libid": "1203",
    "name": "Geneva High School",
    "address": "860 Sherman Street",
    "city": "Geneva",
    "state": "OH",
    "zip": 44041,
    "seo": "ADH",
    "hub": "CLE",
    "routeid": "08-23"
  },
  {
    "id": 26,
    "libid": "1203",
    "name": "Geneva Middle School",
    "address": "860 Sherman Street",
    "city": "Geneva",
    "state": "OH",
    "zip": 44041,
    "seo": "ADM",
    "hub": "CLE",
    "routeid": "08-23"
  },
  {
    "id": 27,
    "libid": "1300",
    "name": "Harbor-Topky Memorial Library",
    "address": "1633 Walnut Blvd",
    "city": "Ashtabula",
    "state": "OH",
    "zip": 44004,
    "seo": "",
    "hub": "CLE",
    "routeid": "08-08"
  },
  {
    "id": 28,
    "libid": "1400",
    "name": "Seneca East P. L.",
    "address": "14 N Main Street; Box 572",
    "city": "Attica",
    "state": "OH",
    "zip": 44807,
    "seo": "ATT",
    "hub": "TOL",
    "routeid": "13-13"
  },
  {
    "id": 29,
    "libid": "1500",
    "name": "Avon Lake P. L.",
    "address": "32649 Electric Blvd",
    "city": "Avon Lake",
    "state": "OH",
    "zip": 44012,
    "seo": "",
    "hub": "CLE",
    "routeid": "10-15"
  },
  {
    "id": 30,
    "libid": "1600",
    "name": "Barberton Public Library",
    "address": "602 W. Park Ave.",
    "city": "Barberton",
    "state": "OH",
    "zip": 44203,
    "seo": "",
    "hub": "AKR",
    "routeid": "20-01"
  },
  {
    "id": 31,
    "libid": "1700",
    "name": "Barnesville Hutton Mem.",
    "address": "308 East Main Street",
    "city": "Barnesville",
    "state": "OH",
    "zip": 43713,
    "seo": "BAR",
    "hub": "CAM",
    "routeid": "05-01"
  },
  {
    "id": 32,
    "libid": "1800",
    "name": "Clermont County P.L. Technical Services Department",
    "address": "5920 Buckwheat Road",
    "city": "Milford",
    "state": "OH",
    "zip": 45150,
    "seo": "",
    "hub": "CIN",
    "routeid": "02-09"
  },
  {
    "id": 33,
    "libid": "1900",
    "name": "Bellaire P. L.",
    "address": "330 32nd Street",
    "city": "Bellaire",
    "state": "OH",
    "zip": 43906,
    "seo": "BEL",
    "hub": "CAM",
    "routeid": "05-28"
  },
  {
    "id": 34,
    "libid": "2100",
    "name": "Logan County Libraries",
    "address": "220 N. Main St",
    "city": "Bellefontaine",
    "state": "OH",
    "zip": 43311,
    "seo": "LOG",
    "hub": "DAY",
    "routeid": "16-06"
  },
  {
    "id": 35,
    "libid": "2100",
    "name": "DeGraff Branch Library",
    "address": "220 N. Main St",
    "city": "Bellefontaine",
    "state": "OH",
    "zip": 43311,
    "seo": "LOD",
    "hub": "DAY",
    "routeid": "16-06"
  },
  {
    "id": 36,
    "libid": "2100",
    "name": "Lakeview Branch",
    "address": "220 N. Main St",
    "city": "Bellefontaine",
    "state": "OH",
    "zip": 43311,
    "seo": "LOL",
    "hub": "DAY",
    "routeid": "16-06"
  },
  {
    "id": 37,
    "libid": "2100",
    "name": "West Mansfield Branch",
    "address": "220 N. Main St",
    "city": "Bellefontaine",
    "state": "OH",
    "zip": 43311,
    "seo": "LOM",
    "hub": "DAY",
    "routeid": "16-06"
  },
  {
    "id": 38,
    "libid": "2100",
    "name": "Rushsylvania Branch Library",
    "address": "220 N. Main St",
    "city": "Bellefontaine",
    "state": "OH",
    "zip": 43311,
    "seo": "LOR",
    "hub": "DAY",
    "routeid": "16-06"
  },
  {
    "id": 39,
    "libid": "2100",
    "name": "West Liberty Branch Library",
    "address": "220 N. Main St",
    "city": "Bellefontaine",
    "state": "OH",
    "zip": 43311,
    "seo": "LOW",
    "hub": "DAY",
    "routeid": "16-06"
  },
  {
    "id": 40,
    "libid": "2200",
    "name": "Bellevue P. L.",
    "address": "224 E Main Street",
    "city": "Bellevue",
    "state": "OH",
    "zip": 44811,
    "seo": "",
    "hub": "TOL",
    "routeid": "13-15"
  },
  {
    "id": 41,
    "libid": "2500",
    "name": "Blanchester P. L.",
    "address": "110 N Broadway",
    "city": "Blanchester",
    "state": "OH",
    "zip": 45107,
    "seo": "",
    "hub": "CIN",
    "routeid": "02-18"
  },
  {
    "id": 42,
    "libid": "2600",
    "name": "Bliss Memorial P. L.",
    "address": "20 S Marion St; PO Box 39",
    "city": "Bloomville",
    "state": "OH",
    "zip": 44818,
    "seo": "BML",
    "hub": "TOL",
    "routeid": "13-12"
  },
  {
    "id": 43,
    "libid": "2700",
    "name": "Bluffton P.L.",
    "address": "145 S Main Street",
    "city": "Bluffton",
    "state": "OH",
    "zip": 45817,
    "seo": "BLU",
    "hub": "DAY",
    "routeid": "16-11"
  },
  {
    "id": 44,
    "libid": "2800",
    "name": "Bowerston P. L.",
    "address": "200 Main Street",
    "city": "Bowerston",
    "state": "OH",
    "zip": 44695,
    "seo": "BDO",
    "hub": "CAM",
    "routeid": "06-21"
  },
  {
    "id": 45,
    "libid": "2900",
    "name": "Wood County District P. L.",
    "address": "251 N. Main",
    "city": "Bowling Green",
    "state": "OH",
    "zip": 43402,
    "seo": "WOD",
    "hub": "TOL",
    "routeid": "14-14"
  },
  {
    "id": 46,
    "libid": "2900",
    "name": "Wood County Bookmobile",
    "address": "251 N. Main",
    "city": "Bowling Green",
    "state": "OH",
    "zip": 43402,
    "seo": "WOK",
    "hub": "TOL",
    "routeid": "14-14"
  },
  {
    "id": 47,
    "libid": "2904",
    "name": "Walbridge Branch",
    "address": "108 North Main Street",
    "city": "Walbridge",
    "state": "OH",
    "zip": 43465,
    "seo": "WOW",
    "hub": "TOL",
    "routeid": "14-01"
  },
  {
    "id": 48,
    "libid": "3000",
    "name": "Bradford P. L.",
    "address": "138 E. Main St.",
    "city": "Bradford",
    "state": "OH",
    "zip": 45308,
    "seo": "",
    "hub": "DAY",
    "routeid": "15-15"
  },
  {
    "id": 49,
    "libid": "3100",
    "name": "Bristol P. L.",
    "address": "1855 Greenville Rd; PO Box 220",
    "city": "Bristolville",
    "state": "OH",
    "zip": 44402,
    "seo": "",
    "hub": "CLE",
    "routeid": "09-03"
  },
  {
    "id": 50,
    "libid": "3200",
    "name": "Williams County P. L.",
    "address": "107 E High Street",
    "city": "Bryan",
    "state": "OH",
    "zip": 43506,
    "seo": "BBR",
    "hub": "TOL",
    "routeid": "12-09"
  },
  {
    "id": 51,
    "libid": "3200",
    "name": "Edon Branch",
    "address": "107 E High Street",
    "city": "Bryan",
    "state": "OH",
    "zip": 43506,
    "seo": "BED",
    "hub": "TOL",
    "routeid": "12-09"
  },
  {
    "id": 52,
    "libid": "3200",
    "name": "Edgerton Branch",
    "address": "107 E High Street",
    "city": "Bryan",
    "state": "OH",
    "zip": 43506,
    "seo": "BEG",
    "hub": "TOL",
    "routeid": "12-09"
  },
  {
    "id": 53,
    "libid": "3200",
    "name": "Pioneer Branch",
    "address": "107 E High Street",
    "city": "Bryan",
    "state": "OH",
    "zip": 43506,
    "seo": "BPI",
    "hub": "TOL",
    "routeid": "12-09"
  },
  {
    "id": 54,
    "libid": "3200",
    "name": "Stryker Branch",
    "address": "107 E High Street",
    "city": "Bryan",
    "state": "OH",
    "zip": 43506,
    "seo": "BST",
    "hub": "TOL",
    "routeid": "12-09"
  },
  {
    "id": 55,
    "libid": "3200",
    "name": "West Unity Branch",
    "address": "107 E High Street",
    "city": "Bryan",
    "state": "OH",
    "zip": 43506,
    "seo": "BWU",
    "hub": "TOL",
    "routeid": "12-09"
  },
  {
    "id": 56,
    "libid": "3300",
    "name": "Bucyrus P. L.",
    "address": "200 East Mansfield Street",
    "city": "Bucyrus",
    "state": "OH",
    "zip": 44820,
    "seo": "",
    "hub": "COL",
    "routeid": "17-19"
  },
  {
    "id": 57,
    "libid": "3400",
    "name": "Burton P. L.",
    "address": "PO Box 427; 14588 W. Park St.",
    "city": "Burton",
    "state": "OH",
    "zip": 44021,
    "seo": "",
    "hub": "CLE",
    "routeid": "09-09"
  },
  {
    "id": 58,
    "libid": "3500",
    "name": "Puskarich P. L.",
    "address": "200 E Market St",
    "city": "Cadiz",
    "state": "OH",
    "zip": 43907,
    "seo": "PPL",
    "hub": "CAM",
    "routeid": "06-16"
  },
  {
    "id": 59,
    "libid": "3503",
    "name": "Clark Memorial Branch",
    "address": "102 West Main St.",
    "city": "Freeport",
    "state": "OH",
    "zip": 43973,
    "seo": "PPC",
    "hub": "CAM",
    "routeid": "06-23"
  },
  {
    "id": 60,
    "libid": "3504",
    "name": "Scio Branch Library",
    "address": "331 West Main St",
    "city": "Scio",
    "state": "OH",
    "zip": 43988,
    "seo": "PPS",
    "hub": "CAM",
    "routeid": "06-22"
  },
  {
    "id": 61,
    "libid": "3600",
    "name": "Caldwell P. L.",
    "address": "517 Spruce Street; PO Box 230",
    "city": "Caldwell",
    "state": "OH",
    "zip": 43724,
    "seo": "CAL",
    "hub": "CAM",
    "routeid": "05-21"
  },
  {
    "id": 62,
    "libid": "3700",
    "name": "Guernsey County Dist. P.L.",
    "address": "800 Steubenville Ave",
    "city": "Cambridge",
    "state": "OH",
    "zip": 43725,
    "seo": "GCC",
    "hub": "CAM",
    "routeid": "05-24"
  },
  {
    "id": 63,
    "libid": "3800",
    "name": "Canal Fulton P. L.",
    "address": "154 Market St NE",
    "city": "Canal Fulton",
    "state": "OH",
    "zip": 44614,
    "seo": "CFP",
    "hub": "AKR",
    "routeid": "20-08"
  },
  {
    "id": 64,
    "libid": "3900",
    "name": "Stark County District Library",
    "address": "715 Market Avenue North",
    "city": "Canton",
    "state": "OH",
    "zip": 44702,
    "seo": "",
    "hub": "AKR",
    "routeid": "20-10"
  },
  {
    "id": 65,
    "libid": "4000",
    "name": "Cardington-Lincoln Public Library",
    "address": "128 E Main Street; PO Box 38",
    "city": "Cardington",
    "state": "OH",
    "zip": 43315,
    "seo": "",
    "hub": "COL",
    "routeid": "18-20"
  },
  {
    "id": 66,
    "libid": "4100",
    "name": "Dorcas Carey P. L.",
    "address": "236 E Findlay Street",
    "city": "Carey",
    "state": "OH",
    "zip": 43316,
    "seo": "DCP",
    "hub": "TOL",
    "routeid": "14-05"
  },
  {
    "id": 67,
    "libid": "4200",
    "name": "Carroll County District Library",
    "address": "70 Second St NE",
    "city": "Carrollton",
    "state": "OH",
    "zip": 44615,
    "seo": "CCC",
    "hub": "CAM",
    "routeid": "06-06"
  },
  {
    "id": 68,
    "libid": "4200",
    "name": "Carroll County Bookmobile",
    "address": "70 Second St NE",
    "city": "Carrollton",
    "state": "OH",
    "zip": 44615,
    "seo": "CCB",
    "hub": "CAM",
    "routeid": "06-06"
  },
  {
    "id": 69,
    "libid": "4200",
    "name": "Malvern Branch",
    "address": "70 Second St NE",
    "city": "Carrollton",
    "state": "OH",
    "zip": 44615,
    "seo": "CCM",
    "hub": "CAM",
    "routeid": "06-06"
  },
  {
    "id": 70,
    "libid": "4300",
    "name": "Mercer County District Library",
    "address": "303 N Main Street",
    "city": "Celina",
    "state": "OH",
    "zip": 45822,
    "seo": "MCC",
    "hub": "DAY",
    "routeid": "15-08"
  },
  {
    "id": 71,
    "libid": "4303",
    "name": "Zahn-Marion Branch Library",
    "address": "5 E. Franklin St.",
    "city": "Chickasaw",
    "state": "OH",
    "zip": 45826,
    "seo": "MCM",
    "hub": "DAY",
    "routeid": "15-11"
  },
  {
    "id": 72,
    "libid": "4304",
    "name": "Mendon Union Branch Library",
    "address": "105 W. Market St.",
    "city": "Mendon",
    "state": "OH",
    "zip": 45862,
    "seo": "MCU",
    "hub": "DAY",
    "routeid": "15-06"
  },
  {
    "id": 73,
    "libid": "4304",
    "name": "Mendon Lockers",
    "address": "105 W. Market St.",
    "city": "Mendon",
    "state": "OH",
    "zip": 45862,
    "seo": "MCV",
    "hub": "DAY",
    "routeid": "15-06"
  },
  {
    "id": 74,
    "libid": "4305",
    "name": "St. Henry P. L.",
    "address": "200 E. Main St.; PO Box 320",
    "city": "St. Henry",
    "state": "OH",
    "zip": 45883,
    "seo": "MCS",
    "hub": "DAY",
    "routeid": "15-12"
  },
  {
    "id": 75,
    "libid": "4500",
    "name": "Washington-Centerville P.L.",
    "address": "111 W Spring Valley Rd",
    "city": "Centerville",
    "state": "OH",
    "zip": 45458,
    "seo": "",
    "hub": "DAY",
    "routeid": "07-16"
  },
  {
    "id": 76,
    "libid": "4600",
    "name": "Geauga County P. L.",
    "address": "12701 Ravenwood Dr",
    "city": "Chardon",
    "state": "OH",
    "zip": 44024,
    "seo": "",
    "hub": "CLE",
    "routeid": "08-01"
  },
  {
    "id": 77,
    "libid": "4700",
    "name": "Selover P. L.",
    "address": "31 St Rt 95",
    "city": "Chesterville",
    "state": "OH",
    "zip": 43317,
    "seo": "",
    "hub": "COL",
    "routeid": "18-16"
  },
  {
    "id": 78,
    "libid": "4800",
    "name": "Chillicothe & Ross County P.L.",
    "address": "Box 185; 140-146 S Paint Street",
    "city": "Chillicothe",
    "state": "OH",
    "zip": 45601,
    "seo": "CHI",
    "hub": "COL",
    "routeid": "03-06"
  },
  {
    "id": 79,
    "libid": "4800",
    "name": "Mt. Logan Branch",
    "address": "Box 185, 140-146 S Paint Street",
    "city": "Chillicothe",
    "state": "OH",
    "zip": 45601,
    "seo": "CHL",
    "hub": "COL",
    "routeid": "03-06"
  },
  {
    "id": 80,
    "libid": "4800",
    "name": "CRCPL Special Services",
    "address": "Box 185, 140-146 S Paint Street",
    "city": "Chillicothe",
    "state": "OH",
    "zip": 45601,
    "seo": "CHV",
    "hub": "COL",
    "routeid": "03-08"
  },
  {
    "id": 81,
    "libid": "4803",
    "name": "Paxton Branch Library-Bainbridge",
    "address": "113 Dewey St.",
    "city": "Bainbridge",
    "state": "OH",
    "zip": 45612,
    "seo": "CHP",
    "hub": "COL",
    "routeid": "03-21"
  },
  {
    "id": 82,
    "libid": "4804",
    "name": "Howard S. Young Library - Frankfort",
    "address": "167 W. Springfield St.",
    "city": "Frankfort",
    "state": "OH",
    "zip": 45628,
    "seo": "CHH",
    "hub": "COL",
    "routeid": "03-23"
  },
  {
    "id": 83,
    "libid": "4805",
    "name": "Kingston Branch",
    "address": "89 N Main St",
    "city": "Kingston",
    "state": "OH",
    "zip": 45644,
    "seo": "CHK",
    "hub": "COL",
    "routeid": "03-18"
  },
  {
    "id": 84,
    "libid": "4806",
    "name": "Richmond Dale Branch",
    "address": "770 Main St.",
    "city": "Richmond Dale",
    "state": "OH",
    "zip": 45673,
    "seo": "CHR",
    "hub": "COL",
    "routeid": "03-19"
  },
  {
    "id": 85,
    "libid": "4807",
    "name": "South Salem Branch Library",
    "address": "4297 Broadway St.",
    "city": "South Salem",
    "state": "OH",
    "zip": 45681,
    "seo": "CHS",
    "hub": "COL",
    "routeid": "03-22"
  },
  {
    "id": 86,
    "libid": "4808",
    "name": "Northside Branch (Chillicothe &Ross PL)",
    "address": "550 Buckeye St.",
    "city": "Chillicothe",
    "state": "OH",
    "zip": 45601,
    "seo": "CHN",
    "hub": "COL",
    "routeid": "03-08"
  },
  {
    "id": 87,
    "libid": "4809",
    "name": "Huntington Branch Library",
    "address": "188 Huntsman Rd",
    "city": "Chillicothe",
    "state": "OH",
    "zip": 45601,
    "seo": "CHT",
    "hub": "COL",
    "routeid": "03-20"
  },
  {
    "id": 88,
    "libid": "4900",
    "name": "P. L. of Cinci & Hamilton Co.",
    "address": "800 Vine Street",
    "city": "Cincinnati",
    "state": "OH",
    "zip": 45202,
    "seo": "",
    "hub": "CIN",
    "routeid": "01-01"
  },
  {
    "id": 89,
    "libid": "5100",
    "name": "Cleveland P. L.",
    "address": "325 Superior",
    "city": "Cleveland",
    "state": "OH",
    "zip": 44114,
    "seo": "",
    "hub": "CLE",
    "routeid": "10-27"
  },
  {
    "id": 90,
    "libid": "5200",
    "name": "Cuyahoga County P. L.",
    "address": "2111 Snow Road",
    "city": "Parma",
    "state": "OH",
    "zip": 44134,
    "seo": "",
    "hub": "CLE",
    "routeid": "11-11"
  },
  {
    "id": 91,
    "libid": "52003",
    "name": "Bay Village",
    "address": "502 Cahoon Road",
    "city": "Bay Village",
    "state": "OH",
    "zip": 44140,
    "seo": "",
    "hub": "CLE",
    "routeid": "11-09"
  },
  {
    "id": 92,
    "libid": "52004",
    "name": "Beachwood",
    "address": "25501 Shaker Boulevard",
    "city": "Beachwood",
    "state": "OH",
    "zip": 44122,
    "seo": "",
    "hub": "CLE",
    "routeid": "09-13"
  },
  {
    "id": 93,
    "libid": "52006",
    "name": "Berea",
    "address": "7 Berea Commons",
    "city": "Berea",
    "state": "OH",
    "zip": 44017,
    "seo": "",
    "hub": "CLE",
    "routeid": "11-08"
  },
  {
    "id": 94,
    "libid": "52007",
    "name": "Brecksville",
    "address": "9089 Brecksville Road",
    "city": "Brecksville",
    "state": "OH",
    "zip": 44141,
    "seo": "",
    "hub": "CLE",
    "routeid": "11-05"
  },
  {
    "id": 95,
    "libid": "52008",
    "name": "Brook Park",
    "address": "6155 Engle Road",
    "city": "Brook Park",
    "state": "OH",
    "zip": 44142,
    "seo": "",
    "hub": "CLE",
    "routeid": "10-04"
  },
  {
    "id": 96,
    "libid": "52001",
    "name": "Brooklyn",
    "address": "4480 Ridge Road",
    "city": "Brooklyn",
    "state": "OH",
    "zip": 44144,
    "seo": "",
    "hub": "CLE",
    "routeid": "01-05"
  },
  {
    "id": 97,
    "libid": "52010",
    "name": "Chagrin Falls",
    "address": "100 East Orange Street",
    "city": "Chagrin Falls",
    "state": "OH",
    "zip": 44022,
    "seo": "",
    "hub": "CLE",
    "routeid": "09-08"
  },
  {
    "id": 98,
    "libid": "52011",
    "name": "Fairview Park",
    "address": "21255 Lorain Road",
    "city": "Fairview Park",
    "state": "OH",
    "zip": 44126,
    "seo": "",
    "hub": "CLE",
    "routeid": "10-19"
  },
  {
    "id": 99,
    "libid": "52012",
    "name": "Garfield Heights",
    "address": "5409 Turney Road",
    "city": "Garfield Heights",
    "state": "OH",
    "zip": 44125,
    "seo": "",
    "hub": "CLE",
    "routeid": "11-01"
  },
  {
    "id": 100,
    "libid": "52013",
    "name": "Gates Mills",
    "address": "1491 Chagrin River Road",
    "city": "Gates Mills",
    "state": "OH",
    "zip": 44040,
    "seo": "",
    "hub": "CLE",
    "routeid": "09-10"
  },
  {
    "id": 101,
    "libid": "52014",
    "name": "Independence",
    "address": "6361 Selig Drive",
    "city": "Independence",
    "state": "OH",
    "zip": 44131,
    "seo": "",
    "hub": "CLE",
    "routeid": "11-06"
  },
  {
    "id": 102,
    "libid": "52015",
    "name": "Maple Heights",
    "address": "5225 Library Lane",
    "city": "Maple Heights",
    "state": "OH",
    "zip": 44137,
    "seo": "",
    "hub": "CLE",
    "routeid": "11-02"
  },
  {
    "id": 103,
    "libid": "52016",
    "name": "Mayfield",
    "address": "500 SOM Center Road",
    "city": "Mayfield Village",
    "state": "OH",
    "zip": 44143,
    "seo": "",
    "hub": "CLE",
    "routeid": "11-13"
  },
  {
    "id": 104,
    "libid": "52017",
    "name": "Middleburg Heights",
    "address": "16699 Bagley Road",
    "city": "Middleburg Heights",
    "state": "OH",
    "zip": 4430,
    "seo": "",
    "hub": "CLE",
    "routeid": "11-16"
  },
  {
    "id": 105,
    "libid": "52018",
    "name": "North Olmsted",
    "address": "27403 Lorain Road",
    "city": "North Olmsted",
    "state": "OH",
    "zip": 44070,
    "seo": "",
    "hub": "CLE",
    "routeid": "10-18"
  },
  {
    "id": 106,
    "libid": "52002",
    "name": "North Royalton",
    "address": "5071 Wallings Road",
    "city": "North Royalton",
    "state": "OH",
    "zip": 44133,
    "seo": "",
    "hub": "CLE",
    "routeid": "11-18"
  },
  {
    "id": 107,
    "libid": "52020",
    "name": "Olmsted Falls",
    "address": "8100 Mapleway Drive",
    "city": "Olmsted Falls",
    "state": "OH",
    "zip": 44138,
    "seo": "",
    "hub": "CLE",
    "routeid": "10-07"
  },
  {
    "id": 108,
    "libid": "52021",
    "name": "Orange",
    "address": "31975 Chagrin Boulevard",
    "city": "Pepper Pike",
    "state": "OH",
    "zip": 44124,
    "seo": "",
    "hub": "CLE",
    "routeid": "11-12"
  },
  {
    "id": 109,
    "libid": "52024",
    "name": "Parma Heights",
    "address": "6206 Pearl Road",
    "city": "Parma Heights",
    "state": "OH",
    "zip": 44130,
    "seo": "",
    "hub": "CLE",
    "routeid": "11-10"
  },
  {
    "id": 110,
    "libid": "52022",
    "name": "Parma South",
    "address": "6996 Powers Boulevard",
    "city": "Parma",
    "state": "OH",
    "zip": 44129,
    "seo": "",
    "hub": "CLE",
    "routeid": "11-14"
  },
  {
    "id": 111,
    "libid": "52030",
    "name": "Richmond Heights",
    "address": "5235 Wilson Mills Road",
    "city": "Richmond Heights",
    "state": "OH",
    "zip": 44143,
    "seo": "",
    "hub": "CLE",
    "routeid": "09-15"
  },
  {
    "id": 112,
    "libid": "52026",
    "name": "Solon",
    "address": "34125 Portz Parkway",
    "city": "Solon",
    "state": "OH",
    "zip": 44139,
    "seo": "",
    "hub": "CLE",
    "routeid": "09-01"
  },
  {
    "id": 113,
    "libid": "52027",
    "name": "South Euclid-Lyndhurst",
    "address": "1876 South Green Road",
    "city": "South Euclid",
    "state": "OH",
    "zip": 44121,
    "seo": "",
    "hub": "CLE",
    "routeid": "09-19"
  },
  {
    "id": 114,
    "libid": "52005",
    "name": "Southeast",
    "address": "70 Columbus Road",
    "city": "Bedford",
    "state": "OH",
    "zip": 44146,
    "seo": "",
    "hub": "CLE",
    "routeid": "11-03"
  },
  {
    "id": 115,
    "libid": "52028",
    "name": "Strongsville",
    "address": "18700 Westwood Drive",
    "city": "Strongsville",
    "state": "OH",
    "zip": 44136,
    "seo": "",
    "hub": "CLE",
    "routeid": "11-17"
  },
  {
    "id": 116,
    "libid": "52029",
    "name": "Warrensville",
    "address": "4415 Northfield Road",
    "city": "Warrensville Heights",
    "state": "OH",
    "zip": 44128,
    "seo": "",
    "hub": "CLE",
    "routeid": "09-02"
  },
  {
    "id": 117,
    "libid": "5300",
    "name": "Cleveland Hts-University Hts. P. L.",
    "address": "2345 Lee Rd",
    "city": "Cleveland Heights",
    "state": "OH",
    "zip": 44118,
    "seo": "",
    "hub": "CLE",
    "routeid": "09-27"
  },
  {
    "id": 118,
    "libid": "5400",
    "name": "Clyde P. L.",
    "address": "222 W Buckeye St",
    "city": "Clyde",
    "state": "OH",
    "zip": 43410,
    "seo": "",
    "hub": "TOL",
    "routeid": "13-07"
  },
  {
    "id": 119,
    "libid": "5500",
    "name": "Coldwater P. L.",
    "address": "305 W Main Street",
    "city": "Coldwater",
    "state": "OH",
    "zip": 45828,
    "seo": "",
    "hub": "DAY",
    "routeid": "15-22"
  },
  {
    "id": 120,
    "libid": "5600",
    "name": "Columbiana Public Library",
    "address": "332 N. Middle St.",
    "city": "Columbiana",
    "state": "OH",
    "zip": 44408,
    "seo": "",
    "hub": "AKR",
    "routeid": "20-24"
  },
  {
    "id": 121,
    "libid": "5800",
    "name": "Conneaut P. L.",
    "address": "304 Buffalo Street",
    "city": "Conneaut",
    "state": "OH",
    "zip": 44030,
    "seo": "",
    "hub": "CLE",
    "routeid": "08-05"
  },
  {
    "id": 122,
    "libid": "5900",
    "name": "Coshocton Co. Dist. Library",
    "address": "655 Main Street",
    "city": "Coshocton",
    "state": "OH",
    "zip": 43812,
    "seo": "CPL",
    "hub": "CAM",
    "routeid": "06-02"
  },
  {
    "id": 123,
    "libid": "5900",
    "name": "Coshocton Bookmobile",
    "address": "655 Main Street",
    "city": "Coshocton",
    "state": "OH",
    "zip": 43812,
    "seo": "CBM",
    "hub": "CAM",
    "routeid": "06-02"
  },
  {
    "id": 124,
    "libid": "5900",
    "name": "West Lafayette Branch Library",
    "address": "655 Main Street",
    "city": "Coshocton",
    "state": "OH",
    "zip": 43812,
    "seo": "CWL",
    "hub": "CAM",
    "routeid": "06-02"
  },
  {
    "id": 125,
    "libid": "6000",
    "name": "J.R. Clarke Public Library",
    "address": "102 East Spring Street",
    "city": "Covington",
    "state": "OH",
    "zip": 45318,
    "seo": "",
    "hub": "DAY",
    "routeid": "15-16"
  },
  {
    "id": 126,
    "libid": "6100",
    "name": "Crestline P. L.",
    "address": "324 N Thoman St",
    "city": "Crestline",
    "state": "OH",
    "zip": 44827,
    "seo": "",
    "hub": "COL",
    "routeid": "18-17"
  },
  {
    "id": 127,
    "libid": "6200",
    "name": "Cuyahoga Falls P.L.",
    "address": "2015 Third Street",
    "city": "Cuyahoga",
    "state": "OH",
    "zip": 44221,
    "seo": "",
    "hub": "AKR",
    "routeid": "21-17"
  },
  {
    "id": 128,
    "libid": "6300",
    "name": "Dayton Metro Library",
    "address": "215 E. 3rd St.",
    "city": "Dayton",
    "state": "OH",
    "zip": 45402,
    "seo": "",
    "hub": "DAY",
    "routeid": "07-21"
  },
  {
    "id": 129,
    "libid": "6400",
    "name": "Defiance P. L.",
    "address": "320 Fort Street",
    "city": "Defiance",
    "state": "OH",
    "zip": 43512,
    "seo": "DPL",
    "hub": "TOL",
    "routeid": "12-12"
  },
  {
    "id": 130,
    "libid": "6403",
    "name": "Johnson Memorial Library",
    "address": "116 W High Street",
    "city": "Hicksville",
    "state": "OH",
    "zip": 43526,
    "seo": "DJM",
    "hub": "TOL",
    "routeid": "12-10"
  },
  {
    "id": 131,
    "libid": "6404",
    "name": "Sherwood Branch Library",
    "address": "117 N Harrison Street",
    "city": "Sherwood",
    "state": "OH",
    "zip": 43556,
    "seo": "DSB",
    "hub": "TOL",
    "routeid": "12-13"
  },
  {
    "id": 132,
    "libid": "6400",
    "name": "Defiance Mall Branch",
    "address": "320 Fort Street",
    "city": "Defiance",
    "state": "OH",
    "zip": 43512,
    "seo": "DPX",
    "hub": "TOL",
    "routeid": "12-12"
  },
  {
    "id": 133,
    "libid": "6600",
    "name": "Delphos P. L.",
    "address": "309 W Second St.",
    "city": "Delphos",
    "state": "OH",
    "zip": 45833,
    "seo": "DEL",
    "hub": "DAY",
    "routeid": "15-05"
  },
  {
    "id": 134,
    "libid": "6700",
    "name": "Delta P. L.",
    "address": "402 Main Street",
    "city": "Delta",
    "state": "OH",
    "zip": 43515,
    "seo": "",
    "hub": "TOL",
    "routeid": "12-22"
  },
  {
    "id": 135,
    "libid": "6800",
    "name": "Claymont P. L.",
    "address": "215 E 3rd Street",
    "city": "Uhrichsville",
    "state": "OH",
    "zip": 44683,
    "seo": "CUH",
    "hub": "CAM",
    "routeid": "06-17"
  },
  {
    "id": 136,
    "libid": "6800",
    "name": "Claymont PL-Dennison Branch",
    "address": "215 E 3rd Street",
    "city": "Uhrichsville",
    "state": "OH",
    "zip": 44683,
    "seo": "CUH",
    "hub": "CAM",
    "routeid": "06-17"
  },
  {
    "id": 137,
    "libid": "6900",
    "name": "Deshler Edwin Wood Mem. Lib.",
    "address": "208 North East Avenue",
    "city": "Deshler",
    "state": "OH",
    "zip": 43516,
    "seo": "DES",
    "hub": "TOL",
    "routeid": "14-12"
  },
  {
    "id": 138,
    "libid": "6900",
    "name": "Hamler Branch Library",
    "address": "208 North East Avenue",
    "city": "Deshler",
    "state": "OH",
    "zip": 43516,
    "seo": "DEH",
    "hub": "TOL",
    "routeid": "14-12"
  },
  {
    "id": 139,
    "libid": "7000",
    "name": "Dover P. L.",
    "address": "525 Walnut Street",
    "city": "Dover",
    "state": "OH",
    "zip": 44622,
    "seo": "",
    "hub": "CAM",
    "routeid": "06-20"
  },
  {
    "id": 140,
    "libid": "7100",
    "name": "Hardin Northern P.L.",
    "address": "153 N. Main St.",
    "city": "Dunkirk",
    "state": "OH",
    "zip": 45836,
    "seo": "DUU",
    "hub": "COL",
    "routeid": "04-22"
  },
  {
    "id": 141,
    "libid": "7200",
    "name": "East Cleveland P. L.",
    "address": "14101 Euclid Avenue",
    "city": "East Cleveland",
    "state": "OH",
    "zip": 44112,
    "seo": "",
    "hub": "CLE",
    "routeid": "09-16"
  },
  {
    "id": 142,
    "libid": "7300",
    "name": "Carnegie P/L East Liverpool",
    "address": "219 E 4th Street",
    "city": "East Liverpool",
    "state": "OH",
    "zip": 43920,
    "seo": "CEL",
    "hub": "AKR",
    "routeid": "20-13"
  },
  {
    "id": 143,
    "libid": "7400",
    "name": "East Palestine Memorial P. L.",
    "address": "309 N Market Street",
    "city": "East Palestine",
    "state": "OH",
    "zip": 44413,
    "seo": "",
    "hub": "AKR",
    "routeid": "20-25"
  },
  {
    "id": 144,
    "libid": "7500",
    "name": "Preble County District Library",
    "address": "450 South Barron Street",
    "city": "Eaton",
    "state": "OH",
    "zip": 45320,
    "seo": "PRD",
    "hub": "DAY",
    "routeid": "07-09"
  },
  {
    "id": 145,
    "libid": "7500",
    "name": "West Alexandria Branch Library",
    "address": "450 South Barron Street",
    "city": "Eaton",
    "state": "OH",
    "zip": 45320,
    "seo": "PRA",
    "hub": "DAY",
    "routeid": "07-09"
  },
  {
    "id": 146,
    "libid": "7500",
    "name": "Camden Branch Library",
    "address": "450 South Barron Street",
    "city": "Eaton",
    "state": "OH",
    "zip": 45320,
    "seo": "PRC",
    "hub": "DAY",
    "routeid": "07-09"
  },
  {
    "id": 147,
    "libid": "7500",
    "name": "Eaton Branch Library",
    "address": "450 South Barron Street",
    "city": "Eaton",
    "state": "OH",
    "zip": 45320,
    "seo": "PRE",
    "hub": "DAY",
    "routeid": "07-09"
  },
  {
    "id": 148,
    "libid": "7500",
    "name": "West Elkton Branch",
    "address": "450 South Barron Street",
    "city": "Eaton",
    "state": "OH",
    "zip": 45320,
    "seo": "PRK",
    "hub": "DAY",
    "routeid": "07-09"
  },
  {
    "id": 149,
    "libid": "7500",
    "name": "Eldorado Branch",
    "address": "450 South Barron Street",
    "city": "Eaton",
    "state": "OH",
    "zip": 45320,
    "seo": "PRL",
    "hub": "DAY",
    "routeid": "07-09"
  },
  {
    "id": 150,
    "libid": "7500",
    "name": "West Manchester Branch",
    "address": "450 South Barron Street",
    "city": "Eaton",
    "state": "OH",
    "zip": 45320,
    "seo": "PRM",
    "hub": "DAY",
    "routeid": "07-09"
  },
  {
    "id": 151,
    "libid": "7500",
    "name": "New Paris Branch",
    "address": "450 South Barron Street",
    "city": "Eaton",
    "state": "OH",
    "zip": 45320,
    "seo": "PRP",
    "hub": "DAY",
    "routeid": "07-09"
  },
  {
    "id": 152,
    "libid": "7500",
    "name": "Preble County Room",
    "address": "450 South Barron Street",
    "city": "Eaton",
    "state": "OH",
    "zip": 45320,
    "seo": "PRR",
    "hub": "DAY",
    "routeid": "07-09"
  },
  {
    "id": 153,
    "libid": "7600",
    "name": "Harris-Elmore P. L.",
    "address": "328 Toledo Street; P.O. Box 45",
    "city": "Elmore",
    "state": "OH",
    "zip": 43416,
    "seo": "ELL",
    "hub": "TOL",
    "routeid": "13-19"
  },
  {
    "id": 154,
    "libid": "7603",
    "name": "Genoa Branch Library",
    "address": "602 West Street",
    "city": "Genoa",
    "state": "OH",
    "zip": 43430,
    "seo": "ELG",
    "hub": "TOL",
    "routeid": "13-20"
  },
  {
    "id": 155,
    "libid": "7704",
    "name": "Elyria P. L.",
    "address": "1219 Taylor Street",
    "city": "Elyria",
    "state": "OH",
    "zip": 44035,
    "seo": "",
    "hub": "CLE",
    "routeid": "10-09"
  },
  {
    "id": 156,
    "libid": "7800",
    "name": "Euclid P. L.",
    "address": "631 E 222nd Street",
    "city": "Euclid",
    "state": "OH",
    "zip": 44123,
    "seo": "",
    "hub": "CLE",
    "routeid": "08-18"
  },
  {
    "id": 157,
    "libid": "7900",
    "name": "Fairport Harbor P. L.",
    "address": "335 Vine Street",
    "city": "Fairport Harbor",
    "state": "OH",
    "zip": 44077,
    "seo": "",
    "hub": "CLE",
    "routeid": "08-12"
  },
  {
    "id": 158,
    "libid": "8000",
    "name": "Normal Memorial Library",
    "address": "301 N Eagle Street",
    "city": "Fayette",
    "state": "OH",
    "zip": 43521,
    "seo": "NML",
    "hub": "TOL",
    "routeid": "12-21"
  },
  {
    "id": 159,
    "libid": "8100",
    "name": "Findlay-Hancock County P. L.",
    "address": "206 Broadway",
    "city": "Findlay",
    "state": "OH",
    "zip": 45840,
    "seo": "FIN",
    "hub": "TOL",
    "routeid": "14-06"
  },
  {
    "id": 160,
    "libid": "8100",
    "name": "Arlington Branch Library",
    "address": "206 Broadway",
    "city": "Findlay",
    "state": "OH",
    "zip": 45840,
    "seo": "FIA",
    "hub": "TOL",
    "routeid": "14-06"
  },
  {
    "id": 161,
    "libid": "8100",
    "name": "Findlay-Hancock Co. Bookmobile",
    "address": "206 Broadway",
    "city": "Findlay",
    "state": "OH",
    "zip": 45840,
    "seo": "FIB",
    "hub": "TOL",
    "routeid": "14-06"
  },
  {
    "id": 162,
    "libid": "8200",
    "name": "Forest-Jackson P. L.",
    "address": "102 W. Lima St.",
    "city": "Forest",
    "state": "OH",
    "zip": 45843,
    "seo": "FJP",
    "hub": "COL",
    "routeid": "17-09"
  },
  {
    "id": 163,
    "libid": "8300",
    "name": "Ft Recovery P. L.",
    "address": "PO Box 309; 113 N Wayne Street",
    "city": "Ft Recovery",
    "state": "OH",
    "zip": 45846,
    "seo": "FTR",
    "hub": "DAY",
    "routeid": "15-13"
  },
  {
    "id": 164,
    "libid": "8400",
    "name": "Kaubisch Memorial P. L.",
    "address": "205 Perry Street",
    "city": "Fostoria",
    "state": "OH",
    "zip": 44830,
    "seo": "KAU",
    "hub": "TOL",
    "routeid": "14-04"
  },
  {
    "id": 165,
    "libid": "8500",
    "name": "Franklin P. L.",
    "address": "44 E. Fourth St.",
    "city": "Franklin",
    "state": "OH",
    "zip": 45005,
    "seo": "",
    "hub": "DAY",
    "routeid": "07-27"
  },
  {
    "id": 166,
    "libid": "8600",
    "name": "Birchard P.L.- Sandusky Co.[Fremont]",
    "address": "423 Croghan Street",
    "city": "Fremont",
    "state": "OH",
    "zip": 43420,
    "seo": "",
    "hub": "TOL",
    "routeid": "13-06"
  },
  {
    "id": 167,
    "libid": "8603",
    "name": "Gibsonburg Branch",
    "address": "100 N. Webster St.",
    "city": "Gibsonburg",
    "state": "OH",
    "zip": 43431,
    "seo": "",
    "hub": "TOL",
    "routeid": "13-04"
  },
  {
    "id": 168,
    "libid": "8604",
    "name": "Green Springs Branch",
    "address": "217 N. Broadway",
    "city": "Green Springs",
    "state": "OH",
    "zip": 44836,
    "seo": "",
    "hub": "TOL",
    "routeid": "13-08"
  },
  {
    "id": 169,
    "libid": "8605",
    "name": "Woodville Branch",
    "address": "101 E. Main St.",
    "city": "Woodville",
    "state": "OH",
    "zip": 43469,
    "seo": "",
    "hub": "TOL",
    "routeid": "13-03"
  },
  {
    "id": 170,
    "libid": "8700",
    "name": "Galion P. L. Association",
    "address": "123 N Market Street",
    "city": "Galion",
    "state": "OH",
    "zip": 44833,
    "seo": "",
    "hub": "COL",
    "routeid": "18-11"
  },
  {
    "id": 171,
    "libid": "8800",
    "name": "Dr Samuel L Bossard Mem. Lib.",
    "address": "7 Spruce Street",
    "city": "Gallipolis",
    "state": "OH",
    "zip": 45631,
    "seo": "",
    "hub": "COL",
    "routeid": "03-12"
  },
  {
    "id": 172,
    "libid": "8900",
    "name": "Portage County District Library",
    "address": "10482 South Street",
    "city": "Garrettsville",
    "state": "OH",
    "zip": 44231,
    "seo": "",
    "hub": "AKR",
    "routeid": "21-14"
  },
  {
    "id": 173,
    "libid": "9000",
    "name": "Brown Co. P. L. (Georgetown)",
    "address": "200 W Grant Ave",
    "city": "Georgetown",
    "state": "OH",
    "zip": 45121,
    "seo": "BCG",
    "hub": "CIN",
    "routeid": "01-19"
  },
  {
    "id": 174,
    "libid": "9097",
    "name": "Sardinia Library",
    "address": "13309 Purdy Rd.",
    "city": "Sardinia",
    "state": "OH",
    "zip": 45171,
    "seo": "BCS",
    "hub": "CIN",
    "routeid": "01-18"
  },
  {
    "id": 175,
    "libid": "9098",
    "name": "Fayetteville-Perry Library",
    "address": "406 N. East St.",
    "city": "Fayetteville",
    "state": "OH",
    "zip": 45118,
    "seo": "BCF",
    "hub": "CIN",
    "routeid": "02-20"
  },
  {
    "id": 176,
    "libid": "9099",
    "name": "Mt. Orab Branch Library",
    "address": "613 South High Street",
    "city": "Mt. Orab",
    "state": "OH",
    "zip": 45154,
    "seo": "BCM",
    "hub": "CIN",
    "routeid": "01-17"
  },
  {
    "id": 177,
    "libid": "9100",
    "name": "Germantown P. L.",
    "address": "51 N Plum Street",
    "city": "Germantown",
    "state": "OH",
    "zip": 45327,
    "seo": "",
    "hub": "DAY",
    "routeid": "07-08"
  },
  {
    "id": 178,
    "libid": "9200",
    "name": "Girard Free Library",
    "address": "105 E Prospect Street",
    "city": "Girard",
    "state": "OH",
    "zip": 44420,
    "seo": "",
    "hub": "AKR",
    "routeid": "21-09"
  },
  {
    "id": 179,
    "libid": "9300",
    "name": "Gnadenhutten Public Library",
    "address": "160 N. Walnut Street",
    "city": "Gnadenhutten",
    "state": "OH",
    "zip": 44629,
    "seo": "GNA",
    "hub": "CAM",
    "routeid": "06-18"
  },
  {
    "id": 180,
    "libid": "9400",
    "name": "Grafton-Midview Public Library",
    "address": "983 Main Street",
    "city": "Grafton",
    "state": "OH",
    "zip": 44044,
    "seo": "",
    "hub": "CLE",
    "routeid": "11-20"
  },
  {
    "id": 181,
    "libid": "9800",
    "name": "Greenville P. L.",
    "address": "520 Sycamore St.",
    "city": "Greenville",
    "state": "OH",
    "zip": 45331,
    "seo": "",
    "hub": "DAY",
    "routeid": "15-23"
  },
  {
    "id": 182,
    "libid": "10000",
    "name": "Lane P. L.-Administration Center",
    "address": "1396 University Blvd.",
    "city": "Hamilton",
    "state": "OH",
    "zip": 45011,
    "seo": "",
    "hub": "DAY",
    "routeid": "07-12"
  },
  {
    "id": 183,
    "libid": "10100",
    "name": "Hillsboro P. L. [Highland Co. Dist. Lib.]",
    "address": "10 Willettsville Pike",
    "city": "Hillsboro",
    "state": "OH",
    "zip": 45133,
    "seo": "HHI",
    "hub": "CIN",
    "routeid": "02-05"
  },
  {
    "id": 184,
    "libid": "10103",
    "name": "Greenfield Branch Library",
    "address": "1125 Jefferson St",
    "city": "Greenfield",
    "state": "OH",
    "zip": 45123,
    "seo": "HGR",
    "hub": "CIN",
    "routeid": "02-14"
  },
  {
    "id": 185,
    "libid": "10104",
    "name": "Leesburg Branch Library",
    "address": "240 E. Main St.",
    "city": "Leesburg",
    "state": "OH",
    "zip": 45135,
    "seo": "HLE",
    "hub": "CIN",
    "routeid": "02-15"
  },
  {
    "id": 186,
    "libid": "10105",
    "name": "Lynchburg Branch Library",
    "address": "102 S. Main St.",
    "city": "Lynchburg",
    "state": "OH",
    "zip": 45142,
    "seo": "HLY",
    "hub": "CIN",
    "routeid": "02-16"
  },
  {
    "id": 187,
    "libid": "10106",
    "name": "Rocky Fork Branch Library",
    "address": "11125 North Shore Drive",
    "city": "Hillsboro",
    "state": "OH",
    "zip": 45133,
    "seo": "HRF",
    "hub": "CIN",
    "routeid": "02-19"
  },
  {
    "id": 188,
    "libid": "10200",
    "name": "Holgate Community Lib",
    "address": "204 Railway Ave.",
    "city": "Holgate",
    "state": "OH",
    "zip": 43527,
    "seo": "HOL",
    "hub": "TOL",
    "routeid": "12-18"
  },
  {
    "id": 189,
    "libid": "10300",
    "name": "Homer Public Library",
    "address": "385 South Street, NW",
    "city": "Homer",
    "state": "OH",
    "zip": 43027,
    "seo": "HMR",
    "hub": "COL",
    "routeid": "19-11"
  },
  {
    "id": 190,
    "libid": "10400",
    "name": "Hubbard P. L.",
    "address": "436 W Liberty Street",
    "city": "Hubbard",
    "state": "OH",
    "zip": 44425,
    "seo": "",
    "hub": "AKR",
    "routeid": "21-08"
  },
  {
    "id": 191,
    "libid": "10500",
    "name": "Hudson Lib. & Historical Soc.",
    "address": "96 Library Street",
    "city": "Hudson",
    "state": "OH",
    "zip": 44236,
    "seo": "",
    "hub": "AKR",
    "routeid": "21-16"
  },
  {
    "id": 192,
    "libid": "10600",
    "name": "Huron P. L.",
    "address": "333 Williams Street",
    "city": "Huron",
    "state": "OH",
    "zip": 44839,
    "seo": "",
    "hub": "CLE",
    "routeid": "10-13"
  },
  {
    "id": 193,
    "libid": "10700",
    "name": "Briggs Lawrence County P. L.",
    "address": "321 S 4th Street",
    "city": "Ironton",
    "state": "OH",
    "zip": 45638,
    "seo": "",
    "hub": "COL",
    "routeid": "03-13"
  },
  {
    "id": 194,
    "libid": "10800",
    "name": "Jackson City Library",
    "address": "21 Broadway St",
    "city": "Jackson",
    "state": "OH",
    "zip": 45640,
    "seo": "",
    "hub": "COL",
    "routeid": "03-15"
  },
  {
    "id": 195,
    "libid": "10900",
    "name": "Henderson Memorial Lib. Assc.",
    "address": "54 E Jefferson Street",
    "city": "Jefferson",
    "state": "OH",
    "zip": 44047,
    "seo": "",
    "hub": "CLE",
    "routeid": "08-03"
  },
  {
    "id": 196,
    "libid": "11100",
    "name": "M. L. Johnson-Hardin Co. Lib.",
    "address": "325 E. Columbus St.",
    "city": "Kenton",
    "state": "OH",
    "zip": 43326,
    "seo": "",
    "hub": "COL",
    "routeid": "17-22"
  },
  {
    "id": 197,
    "libid": "11200",
    "name": "Kingsville P. L.",
    "address": "6006 Academy St",
    "city": "Kingsville",
    "state": "OH",
    "zip": 44048,
    "seo": "",
    "hub": "CLE",
    "routeid": "08-06"
  },
  {
    "id": 198,
    "libid": "11300",
    "name": "Kinsman Free P. L.",
    "address": "6420 Church St; PO Box 166",
    "city": "Kinsman",
    "state": "OH",
    "zip": 44428,
    "seo": "",
    "hub": "CLE",
    "routeid": "09-04"
  },
  {
    "id": 199,
    "libid": "11400",
    "name": "Kirtland P. L.",
    "address": "9267 Chillicothe Rd",
    "city": "Kirtland",
    "state": "OH",
    "zip": 44094,
    "seo": "",
    "hub": "CLE",
    "routeid": "08-16"
  },
  {
    "id": 200,
    "libid": "11500",
    "name": "Lakewood P. L.",
    "address": "15425 Detroit Avenue",
    "city": "Lakewood",
    "state": "OH",
    "zip": 44107,
    "seo": "",
    "hub": "CLE",
    "routeid": "10-21"
  },
  {
    "id": 201,
    "libid": "11700",
    "name": "Lebanon P. L.",
    "address": "101 S Broadway",
    "city": "Lebanon",
    "state": "OH",
    "zip": 45036,
    "seo": "",
    "hub": "CIN",
    "routeid": "02-12"
  },
  {
    "id": 202,
    "libid": "11800",
    "name": "Leetonia P. L.",
    "address": "181 Walnut Street",
    "city": "Leetonia",
    "state": "OH",
    "zip": 44431,
    "seo": "LEE",
    "hub": "AKR",
    "routeid": "20-23"
  },
  {
    "id": 203,
    "libid": "11900",
    "name": "Brown Memorial Library",
    "address": "101 S Commerce; Box 640",
    "city": "Lewisburg",
    "state": "OH",
    "zip": 45338,
    "seo": "BWN",
    "hub": "DAY",
    "routeid": "15-25"
  },
  {
    "id": 204,
    "libid": "12000",
    "name": "Liberty Center P. L.",
    "address": "124 East Street; P.O. Box 66",
    "city": "Liberty Center",
    "state": "OH",
    "zip": 43532,
    "seo": "LCP",
    "hub": "TOL",
    "routeid": "12-17"
  },
  {
    "id": 205,
    "libid": "12100",
    "name": "Lima P. L.",
    "address": "650 W Market St",
    "city": "Lima",
    "state": "OH",
    "zip": 45801,
    "seo": "",
    "hub": "DAY",
    "routeid": "15-27"
  },
  {
    "id": 206,
    "libid": "12300",
    "name": "Logan-Hocking County District Library",
    "address": "230 E. Main St.",
    "city": "Logan",
    "state": "OH",
    "zip": 43139,
    "seo": "",
    "hub": "COL",
    "routeid": "03-11"
  },
  {
    "id": 207,
    "libid": "12500",
    "name": "Lorain P. L. System",
    "address": "351 Sixth Street",
    "city": "Lorain",
    "state": "OH",
    "zip": 44052,
    "seo": "",
    "hub": "CLE",
    "routeid": "10-14"
  },
  {
    "id": 208,
    "libid": "12600",
    "name": "Loudonville P. L.",
    "address": "122 East Main Street",
    "city": "Loudonville",
    "state": "OH",
    "zip": 44842,
    "seo": "LOU",
    "hub": "COL",
    "routeid": "18-05"
  },
  {
    "id": 209,
    "libid": "12700",
    "name": "Louisville P. L.",
    "address": "700 Lincoln Ave",
    "city": "Louisville",
    "state": "OH",
    "zip": 44641,
    "seo": "LSV",
    "hub": "AKR",
    "routeid": "20-18"
  },
  {
    "id": 210,
    "libid": "12700",
    "name": "Louisville Lockers",
    "address": "700 Lincoln Ave",
    "city": "Louisville",
    "state": "OH",
    "zip": 44641,
    "seo": "LSL",
    "hub": "AKR",
    "routeid": "20-18"
  },
  {
    "id": 211,
    "libid": "12800",
    "name": "Madison P. L.",
    "address": "6111 Middle Ridge Road",
    "city": "Madison",
    "state": "OH",
    "zip": 44057,
    "seo": "",
    "hub": "CLE",
    "routeid": "08-10"
  },
  {
    "id": 212,
    "libid": "12903",
    "name": "Peebles P.L. [Adams Co.]",
    "address": "157 High St.",
    "city": "Peebles",
    "state": "OH",
    "zip": 45660,
    "seo": "ACP",
    "hub": "CIN",
    "routeid": "01-13"
  },
  {
    "id": 213,
    "libid": "12903",
    "name": "North Adams PL",
    "address": "157 High St.",
    "city": "Peebles",
    "state": "OH",
    "zip": 45660,
    "seo": "CAN",
    "hub": "CIN",
    "routeid": "01-13"
  },
  {
    "id": 214,
    "libid": "12903",
    "name": "West Union",
    "address": "157 High St.",
    "city": "Peebles",
    "state": "OH",
    "zip": 45660,
    "seo": "ACW",
    "hub": "CIN",
    "routeid": "01-13"
  },
  {
    "id": 215,
    "libid": "12903",
    "name": "Manchester",
    "address": "157 High St.",
    "city": "Peebles",
    "state": "OH",
    "zip": 45660,
    "seo": "ACM",
    "hub": "CIN",
    "routeid": "01-13"
  },
  {
    "id": 216,
    "libid": "13000",
    "name": "Mansfield Richland Co. P.L.",
    "address": "43 West Third St.",
    "city": "Mansfield",
    "state": "OH",
    "zip": 44902,
    "seo": "",
    "hub": "COL",
    "routeid": "18-08"
  },
  {
    "id": 217,
    "libid": "13100",
    "name": "Washington County P. L.",
    "address": "615 Fifth Street",
    "city": "Marietta",
    "state": "OH",
    "zip": 45750,
    "seo": "WCM",
    "hub": "CAM",
    "routeid": "05-16"
  },
  {
    "id": 218,
    "libid": "13102",
    "name": "Barlow Branch",
    "address": "45 White Oak Professional Center",
    "city": "Vincent",
    "state": "OH",
    "zip": 45784,
    "seo": "WCR",
    "hub": "CAM",
    "routeid": "05-18"
  },
  {
    "id": 219,
    "libid": "13103",
    "name": "Belpre Branch",
    "address": "2012 Washington Blvd.",
    "city": "Belpre",
    "state": "OH",
    "zip": 45714,
    "seo": "WCB",
    "hub": "CAM",
    "routeid": "05-17"
  },
  {
    "id": 220,
    "libid": "13104",
    "name": "Beverly Branch-L. Pomeroy",
    "address": "1 McIntosh St.; POB 728",
    "city": "Beverly",
    "state": "OH",
    "zip": 45715,
    "seo": "WCL",
    "hub": "CAM",
    "routeid": "05-19"
  },
  {
    "id": 221,
    "libid": "13105",
    "name": "New Matamoras Branch",
    "address": "100 Merchant St.; PO Box 279",
    "city": "New Matamoras",
    "state": "OH",
    "zip": 45767,
    "seo": "WCN",
    "hub": "CAM",
    "routeid": "05-12"
  },
  {
    "id": 222,
    "libid": "13106",
    "name": "Lafayette Branch",
    "address": "478 Pike Street",
    "city": "Marietta",
    "state": "OH",
    "zip": 45750,
    "seo": "WCW",
    "hub": "CAM",
    "routeid": "05-13"
  },
  {
    "id": 223,
    "libid": "13200",
    "name": "Marion Public Library",
    "address": "445 East Church Street",
    "city": "Marion",
    "state": "OH",
    "zip": 43302,
    "seo": "",
    "hub": "COL",
    "routeid": "17-07"
  },
  {
    "id": 224,
    "libid": "13300",
    "name": "Belmont County District Library",
    "address": "20 James Wright Place",
    "city": "Martins Ferry",
    "state": "OH",
    "zip": 43935,
    "seo": "MFP",
    "hub": "CAM",
    "routeid": "05-08"
  },
  {
    "id": 225,
    "libid": "13300",
    "name": "Belmont Co. Bookmobile",
    "address": "20 James Wright Place",
    "city": "Martins Ferry",
    "state": "OH",
    "zip": 43935,
    "seo": "MBK",
    "hub": "CAM",
    "routeid": "05-08"
  },
  {
    "id": 226,
    "libid": "13303",
    "name": "Bethesda Library Branch",
    "address": "112 N. Main St.",
    "city": "Bethesda",
    "state": "OH",
    "zip": 43719,
    "seo": "MBE",
    "hub": "CAM",
    "routeid": "05-02"
  },
  {
    "id": 227,
    "libid": "13304",
    "name": "Bridgeport Branch Library",
    "address": "661 Main St.",
    "city": "Bridgeport",
    "state": "OH",
    "zip": 43912,
    "seo": "MBR",
    "hub": "CAM",
    "routeid": "05-07"
  },
  {
    "id": 228,
    "libid": "13305",
    "name": "Victoria Read Branch",
    "address": "300 High St.; PO Box 214",
    "city": "Flushing",
    "state": "OH",
    "zip": 43977,
    "seo": "MVI",
    "hub": "CAM",
    "routeid": "05-04"
  },
  {
    "id": 229,
    "libid": "13307",
    "name": "Powhatan Point Branch Lib",
    "address": "297 N. Rt. 7",
    "city": "Powhatan Point",
    "state": "OH",
    "zip": 43942,
    "seo": "MPO",
    "hub": "CAM",
    "routeid": "05-10"
  },
  {
    "id": 230,
    "libid": "13308",
    "name": "Shadyside Branch Library",
    "address": "4300 Central Ave.",
    "city": "Shadyside",
    "state": "OH",
    "zip": 43947,
    "seo": "MSH",
    "hub": "CAM",
    "routeid": "05-09"
  },
  {
    "id": 231,
    "libid": "13500",
    "name": "Mason P. L.",
    "address": "200 Reading Road",
    "city": "Mason",
    "state": "OH",
    "zip": 45040,
    "seo": "",
    "hub": "CIN",
    "routeid": "02-11"
  },
  {
    "id": 232,
    "libid": "13600",
    "name": "Massillon P. L.",
    "address": "208 Lincoln Way East",
    "city": "Massillon",
    "state": "OH",
    "zip": 44646,
    "seo": "",
    "hub": "AKR",
    "routeid": "20-09"
  },
  {
    "id": 233,
    "libid": "13700",
    "name": "Herbert Wescoat Mem. Lib.",
    "address": "120 North Market Street",
    "city": "McArthur",
    "state": "OH",
    "zip": 45651,
    "seo": "",
    "hub": "COL",
    "routeid": "03-17"
  },
  {
    "id": 234,
    "libid": "13800",
    "name": "McComb P. L.",
    "address": "113 S Todd Street",
    "city": "McComb",
    "state": "OH",
    "zip": 45858,
    "seo": "MCB",
    "hub": "TOL",
    "routeid": "14-10"
  },
  {
    "id": 235,
    "libid": "13900",
    "name": "K. L. Simpson Morgan Co. Lib.",
    "address": "358 E Main Street",
    "city": "McConnelsville",
    "state": "OH",
    "zip": 43756,
    "seo": "KLS",
    "hub": "COL",
    "routeid": "04-06"
  },
  {
    "id": 236,
    "libid": "13900",
    "name": "Kate Love Simpson Bookmobile",
    "address": "358 E Main Street",
    "city": "McConnelsville",
    "state": "OH",
    "zip": 43756,
    "seo": "KLK",
    "hub": "COL",
    "routeid": "04-06"
  },
  {
    "id": 237,
    "libid": "13903",
    "name": "Chesterhill Branch",
    "address": "7520 Marion St.",
    "city": "Chesterhill",
    "state": "OH",
    "zip": 43728,
    "seo": "KLC",
    "hub": "COL",
    "routeid": "04-05"
  },
  {
    "id": 238,
    "libid": "14000",
    "name": "Mechanicsburg P. L.",
    "address": "60 S Main Street",
    "city": "Mechanicsburg",
    "state": "OH",
    "zip": 43044,
    "seo": "MEC",
    "hub": "DAY",
    "routeid": "16-04"
  },
  {
    "id": 239,
    "libid": "14100",
    "name": "Medina County District Library",
    "address": "6625 Wolff Road",
    "city": "Medina",
    "state": "OH",
    "zip": 44256,
    "seo": "",
    "hub": "CLE",
    "routeid": "11-19"
  },
  {
    "id": 240,
    "libid": "14200",
    "name": "Mentor P. L.",
    "address": "8215 Mentor Avenue",
    "city": "Mentor",
    "state": "OH",
    "zip": 44060,
    "seo": "",
    "hub": "CLE",
    "routeid": "08-15"
  },
  {
    "id": 241,
    "libid": "14300",
    "name": "Evergreen Community Library",
    "address": "253 Maple St; PO Box E",
    "city": "Metamora",
    "state": "OH",
    "zip": 43540,
    "seo": "",
    "hub": "TOL",
    "routeid": "12-23"
  },
  {
    "id": 242,
    "libid": "14400",
    "name": "MidPointe Library System",
    "address": "125 South Broad Street",
    "city": "Middletown",
    "state": "OH",
    "zip": 45044,
    "seo": "",
    "hub": "DAY",
    "routeid": "7-13"
  },
  {
    "id": 243,
    "libid": "14500",
    "name": "Milan Public Library",
    "address": "19 E Church St.",
    "city": "Milan",
    "state": "OH",
    "zip": 44846,
    "seo": "",
    "hub": "CLE",
    "routeid": "10-25"
  },
  {
    "id": 244,
    "libid": "14503",
    "name": "Berlin Public Library",
    "address": "4 East Main Street",
    "city": "Berlin Heights",
    "state": "OH",
    "zip": 44814,
    "seo": "",
    "hub": "CLE",
    "routeid": "10-24"
  },
  {
    "id": 245,
    "libid": "14600",
    "name": "Holmes County District P. L.",
    "address": "3102 Glen Dr",
    "city": "Millersburg",
    "state": "OH",
    "zip": 44654,
    "seo": "HCO",
    "hub": "CAM",
    "routeid": "06-03"
  },
  {
    "id": 246,
    "libid": "14600",
    "name": "Hiland School District",
    "address": "3102 Glen Dr",
    "city": "Millersburg",
    "state": "OH",
    "zip": 44654,
    "seo": "HBE",
    "hub": "CAM",
    "routeid": "06-03"
  },
  {
    "id": 247,
    "libid": "14600",
    "name": "Holmes County Bookmobile",
    "address": "3102 Glen Dr",
    "city": "Millersburg",
    "state": "OH",
    "zip": 44654,
    "seo": "HBO",
    "hub": "CAM",
    "routeid": "06-03"
  },
  {
    "id": 248,
    "libid": "14600",
    "name": "Holmes County Training Center",
    "address": "3102 Glen Dr",
    "city": "Millersburg",
    "state": "OH",
    "zip": 44654,
    "seo": "HTC",
    "hub": "CAM",
    "routeid": "06-03"
  },
  {
    "id": 249,
    "libid": "14600",
    "name": "East Branch Holmes Co. Library",
    "address": "3102 Glen Dr",
    "city": "Millersburg",
    "state": "OH",
    "zip": 44654,
    "seo": "HWC",
    "hub": "CAM",
    "routeid": "06-03"
  },
  {
    "id": 250,
    "libid": "14600",
    "name": "West Holmes Local Schools",
    "address": "3102 Glen Dr",
    "city": "Millersburg",
    "state": "OH",
    "zip": 44654,
    "seo": "HWB",
    "hub": "CAM",
    "routeid": "06-03"
  },
  {
    "id": 251,
    "libid": "14700",
    "name": "Minerva P. L.",
    "address": "677 Lynnwood Drive",
    "city": "Minerva",
    "state": "OH",
    "zip": 44657,
    "seo": "MIN",
    "hub": "AKR",
    "routeid": "20-11"
  },
  {
    "id": 252,
    "libid": "14800",
    "name": "Monroeville P. L.",
    "address": "34 Monroe Street; P.O. Box 276",
    "city": "Monroeville",
    "state": "OH",
    "zip": 44847,
    "seo": "MPL",
    "hub": "TOL",
    "routeid": "13-23"
  },
  {
    "id": 253,
    "libid": "14900",
    "name": "Montpelier P. L.",
    "address": "216 East Main Street",
    "city": "Montpelier",
    "state": "OH",
    "zip": 43543,
    "seo": "MTP",
    "hub": "TOL",
    "routeid": "12-20"
  },
  {
    "id": 254,
    "libid": "15000",
    "name": "Salem Township P. L.",
    "address": "535 West Pike St",
    "city": "Morrow",
    "state": "OH",
    "zip": 45152,
    "seo": "",
    "hub": "CIN",
    "routeid": "02-08"
  },
  {
    "id": 255,
    "libid": "15100",
    "name": "Mt. Gilead P. L.",
    "address": "41 E High Street",
    "city": "Mt Gilead",
    "state": "OH",
    "zip": 43338,
    "seo": "",
    "hub": "COL",
    "routeid": "18-19"
  },
  {
    "id": 256,
    "libid": "15200",
    "name": "Mt. Sterling P. L.",
    "address": "60 W Columbus Street",
    "city": "Mt. Sterling",
    "state": "OH",
    "zip": 43143,
    "seo": "MSL",
    "hub": "COL",
    "routeid": "17-20"
  },
  {
    "id": 257,
    "libid": "15300",
    "name": "Mt Vernon & Knox County P. L.",
    "address": "201 N Mulberry Street",
    "city": "Mt Vernon",
    "state": "OH",
    "zip": 43050,
    "seo": "",
    "hub": "COL",
    "routeid": "19-04"
  },
  {
    "id": 258,
    "libid": "15400",
    "name": "Ridgemont P. L.",
    "address": "124 E Taylor St; PO Box 318",
    "city": "Mt Victory",
    "state": "OH",
    "zip": 43340,
    "seo": "HRP",
    "hub": "COL",
    "routeid": "17-21"
  },
  {
    "id": 259,
    "libid": "15400",
    "name": "Ridgeway Branch",
    "address": "124 E Taylor St, PO Box 318",
    "city": "Mt Victory",
    "state": "OH",
    "zip": 43340,
    "seo": "HRR",
    "hub": "COL",
    "routeid": "17-21"
  },
  {
    "id": 260,
    "libid": "15500",
    "name": "Napoleon P. L.",
    "address": "310 W Clinton Street",
    "city": "Napoleon",
    "state": "OH",
    "zip": 43545,
    "seo": "NAP",
    "hub": "TOL",
    "routeid": "12-14"
  },
  {
    "id": 261,
    "libid": "15500",
    "name": "Florida Branch Library",
    "address": "310 W Clinton Street",
    "city": "Napoleon",
    "state": "OH",
    "zip": 43545,
    "seo": "NAF",
    "hub": "TOL",
    "routeid": "12-14"
  },
  {
    "id": 262,
    "libid": "15500",
    "name": "McClure Branch",
    "address": "310 W Clinton Street",
    "city": "Napoleon",
    "state": "OH",
    "zip": 43545,
    "seo": "NAM",
    "hub": "TOL",
    "routeid": "12-14"
  },
  {
    "id": 263,
    "libid": "15600",
    "name": "Nelsonville Public Library [Athens Co. Lib]",
    "address": "95 W. Washington Street",
    "city": "Nelsonville",
    "state": "OH",
    "zip": 45764,
    "seo": "",
    "hub": "COL",
    "routeid": "04-21"
  },
  {
    "id": 264,
    "libid": "15603",
    "name": "Athens Public Library [Athens Co. Library]",
    "address": "30 Home Street",
    "city": "Athens",
    "state": "OH",
    "zip": 45701,
    "seo": "",
    "hub": "COL",
    "routeid": "04-03"
  },
  {
    "id": 265,
    "libid": "15604",
    "name": "Chauncey Public Library",
    "address": "29 Converse St",
    "city": "Chauncey",
    "state": "OH",
    "zip": 45719,
    "seo": "",
    "hub": "COL",
    "routeid": "04-17"
  },
  {
    "id": 266,
    "libid": "15605",
    "name": "Glouster Public Library [Athens Co. Lib]",
    "address": "20 Toledo Street",
    "city": "Glouster",
    "state": "OH",
    "zip": 45732,
    "seo": "",
    "hub": "COL",
    "routeid": "04-16"
  },
  {
    "id": 267,
    "libid": "15607",
    "name": "The Plains Public Library [Athens Co. Lib]",
    "address": "14 South Plains Road",
    "city": "The Plains",
    "state": "OH",
    "zip": 45723,
    "seo": "",
    "hub": "COL",
    "routeid": "04-20"
  },
  {
    "id": 268,
    "libid": "15608",
    "name": "Coolville Public Library [Athens Co. Lib]",
    "address": "26401 Main Street",
    "city": "Coolville",
    "state": "OH",
    "zip": 45723,
    "seo": "",
    "hub": "COL",
    "routeid": "04-18"
  },
  {
    "id": 269,
    "libid": "15609",
    "name": "Wells (Albany) Public Library [Athens Co. Lib]",
    "address": "5200 Washington Road",
    "city": "Albany",
    "state": "OH",
    "zip": 45710,
    "seo": "",
    "hub": "COL",
    "routeid": "04-19"
  },
  {
    "id": 270,
    "libid": "15700",
    "name": "New Carlisle P. L.",
    "address": "111 E Lake Ave",
    "city": "New Carlisle",
    "state": "OH",
    "zip": 45344,
    "seo": "NCP",
    "hub": "DAY",
    "routeid": "16-01"
  },
  {
    "id": 271,
    "libid": "15800",
    "name": "Perry County District Library",
    "address": "117 S Jackson Street",
    "city": "New Lexington",
    "state": "OH",
    "zip": 43764,
    "seo": "PNL",
    "hub": "COL",
    "routeid": "04-09"
  },
  {
    "id": 272,
    "libid": "15804",
    "name": "Corning Branch Library",
    "address": "113 Eleventh Street",
    "city": "Corning",
    "state": "OH",
    "zip": 43730,
    "seo": "PCO",
    "hub": "COL",
    "routeid": "04-07"
  },
  {
    "id": 273,
    "libid": "15805",
    "name": "Crooksville Branch Library",
    "address": "111 E. Main St.",
    "city": "Crooksville",
    "state": "OH",
    "zip": 43731,
    "seo": "PCR",
    "hub": "COL",
    "routeid": "04-08"
  },
  {
    "id": 274,
    "libid": "15806",
    "name": "Junction City Branch Library",
    "address": "108 W. Main St.",
    "city": "Junction City",
    "state": "OH",
    "zip": 43748,
    "seo": "PJC",
    "hub": "COL",
    "routeid": "04-10"
  },
  {
    "id": 275,
    "libid": "15808",
    "name": "Somerset Branch Library",
    "address": "117 West Main Street",
    "city": "Somerset",
    "state": "OH",
    "zip": 43783,
    "seo": "PSO",
    "hub": "COL",
    "routeid": "04-15"
  },
  {
    "id": 276,
    "libid": "15809",
    "name": "Thornville Branch Library",
    "address": "99 E. Columbus St.",
    "city": "Thornville",
    "state": "OH",
    "zip": 43076,
    "seo": "PTH",
    "hub": "COL",
    "routeid": "04-12"
  },
  {
    "id": 277,
    "libid": "15900",
    "name": "New London P.L.",
    "address": "67 S. Main St.",
    "city": "New London",
    "state": "OH",
    "zip": 44851,
    "seo": "NLL",
    "hub": "CLE",
    "routeid": "11-26"
  },
  {
    "id": 278,
    "libid": "16000",
    "name": "New Madison P. L.",
    "address": "P.O.Box 32; 142 S Main Street",
    "city": "New Madison",
    "state": "OH",
    "zip": 45346,
    "seo": "NMA",
    "hub": "DAY",
    "routeid": "15-14"
  },
  {
    "id": 279,
    "libid": "16100",
    "name": "Tuscarawas Main Library",
    "address": "121 Fair Avenue NW",
    "city": "New Philadelphia",
    "state": "OH",
    "zip": 44663,
    "seo": "TCO",
    "hub": "CAM",
    "routeid": "06-04"
  },
  {
    "id": 280,
    "libid": "16100",
    "name": "Tuscarawas Co Mobile Services",
    "address": "121 Fair Avenue NW",
    "city": "New Philadelphia",
    "state": "OH",
    "zip": 44663,
    "seo": "TBO",
    "hub": "CAM",
    "routeid": "06-04"
  },
  {
    "id": 281,
    "libid": "16100",
    "name": "Tuscarawas Main-DRIVE UP",
    "address": "121 Fair Avenue NW",
    "city": "New Philadelphia",
    "state": "OH",
    "zip": 44663,
    "seo": "TDU",
    "hub": "CAM",
    "routeid": "06-04"
  },
  {
    "id": 282,
    "libid": "16100",
    "name": "Strasburg Branch Library",
    "address": "121 Fair Avenue NW",
    "city": "New Philadelphia",
    "state": "OH",
    "zip": 44663,
    "seo": "TEO",
    "hub": "CAM",
    "routeid": "06-04"
  },
  {
    "id": 283,
    "libid": "16100",
    "name": "Tuscarawas County Outreach",
    "address": "121 Fair Avenue NW",
    "city": "New Philadelphia",
    "state": "OH",
    "zip": 44663,
    "seo": "TOR",
    "hub": "CAM",
    "routeid": "06-04"
  },
  {
    "id": 284,
    "libid": "16100",
    "name": "Sugarcreek Branch Library",
    "address": "121 Fair Avenue NW",
    "city": "New Philadelphia",
    "state": "OH",
    "zip": 44663,
    "seo": "TSO",
    "hub": "CAM",
    "routeid": "06-04"
  },
  {
    "id": 285,
    "libid": "16100",
    "name": "Tuscarawas Branch Library",
    "address": "121 Fair Avenue NW",
    "city": "New Philadelphia",
    "state": "OH",
    "zip": 44663,
    "seo": "TTO",
    "hub": "CAM",
    "routeid": "06-04"
  },
  {
    "id": 286,
    "libid": "16100",
    "name": "Bolivar Branch Library",
    "address": "121 Fair Avenue NW",
    "city": "New Philadelphia",
    "state": "OH",
    "zip": 44663,
    "seo": "TVO",
    "hub": "CAM",
    "routeid": "06-04"
  },
  {
    "id": 287,
    "libid": "16100",
    "name": "Tuscarawas Main Library Lockers",
    "address": "121 Fair Ave NW",
    "city": "New Philadelphia",
    "state": "OH",
    "zip": 44663,
    "seo": "TCL",
    "hub": "CAM",
    "routeid": "06-04"
  },
  {
    "id": 288,
    "libid": "16300",
    "name": "LCL Downtown Newark",
    "address": "101 West Main Street",
    "city": "Newark",
    "state": "OH",
    "zip": 43055,
    "seo": "LNE",
    "hub": "COL",
    "routeid": "19-06"
  },
  {
    "id": 289,
    "libid": "16300",
    "name": "LCL Bookmobile",
    "address": "101 West Main Street",
    "city": "Newark",
    "state": "OH",
    "zip": 43055,
    "seo": "LBO",
    "hub": "COL",
    "routeid": "19-06"
  },
  {
    "id": 290,
    "libid": "16300",
    "name": "LCL 24-Hour Kiosk COTC Pataskala Campus",
    "address": "101 West Main Street",
    "city": "Newark",
    "state": "OH",
    "zip": 43055,
    "seo": "LBR",
    "hub": "COL",
    "routeid": "19-06"
  },
  {
    "id": 291,
    "libid": "16300",
    "name": "LCL Buckeye Lake",
    "address": "101 West Main Street",
    "city": "Newark",
    "state": "OH",
    "zip": 43055,
    "seo": "LBU",
    "hub": "COL",
    "routeid": "19-06"
  },
  {
    "id": 292,
    "libid": "16300",
    "name": "Main Drive-up Window-Licking Co. Library",
    "address": "101 West Main Street",
    "city": "Newark",
    "state": "OH",
    "zip": 43055,
    "seo": "LDU",
    "hub": "COL",
    "routeid": "19-06"
  },
  {
    "id": 293,
    "libid": "16300",
    "name": "LCL Hebron",
    "address": "101 West Main Street",
    "city": "Newark",
    "state": "OH",
    "zip": 43055,
    "seo": "LHE",
    "hub": "COL",
    "routeid": "19-06"
  },
  {
    "id": 294,
    "libid": "16300",
    "name": "LCL West Newark Emerson R. Miller",
    "address": "101 West Main Street",
    "city": "Newark",
    "state": "OH",
    "zip": 43055,
    "seo": "LMI",
    "hub": "COL",
    "routeid": "19-06"
  },
  {
    "id": 295,
    "libid": "16300",
    "name": "LCL 24 Hour Kiosk Legacy Park Hanover",
    "address": "101 West Main Street",
    "city": "Newark",
    "state": "OH",
    "zip": 43055,
    "seo": "LLP",
    "hub": "COL",
    "routeid": "19-06"
  },
  {
    "id": 296,
    "libid": "16300",
    "name": "LCL Downtown Newark Driveup",
    "address": "101 West Main St",
    "city": "Newark",
    "state": "OH",
    "zip": 43055,
    "seo": "LDU",
    "hub": "COL",
    "routeid": "19-06"
  },
  {
    "id": 297,
    "libid": "16300",
    "name": "LCL West Newark Emerson R Miller Driveup",
    "address": "101 West Main St",
    "city": "Newark",
    "state": "OH",
    "zip": 43055,
    "seo": "LMD",
    "hub": "COL",
    "routeid": "19-06"
  },
  {
    "id": 298,
    "libid": "16304",
    "name": "LCL Johnstown Mary E. Babcock",
    "address": "320 North Main Street",
    "city": "Johnstown",
    "state": "OH",
    "zip": 43031,
    "seo": "LMB",
    "hub": "COL",
    "routeid": "19-02"
  },
  {
    "id": 299,
    "libid": "16306",
    "name": "LCL Utica Hervey Memorial",
    "address": "15 N. Main Street",
    "city": "Utica",
    "state": "OH",
    "zip": 43080,
    "seo": "LUT",
    "hub": "COL",
    "routeid": "19-12"
  },
  {
    "id": 300,
    "libid": "16400",
    "name": "Newcomerstown P. L.",
    "address": "123 East Main St.",
    "city": "Newcomerstown",
    "state": "OH",
    "zip": 43832,
    "seo": "NCT",
    "hub": "CAM",
    "routeid": "06-01"
  },
  {
    "id": 301,
    "libid": "16500",
    "name": "Newton Falls P. L.",
    "address": "204 S Canal Street",
    "city": "Newton Falls",
    "state": "OH",
    "zip": 44444,
    "seo": "",
    "hub": "AKR",
    "routeid": "21-13"
  },
  {
    "id": 302,
    "libid": "16600",
    "name": "McKinley Memorial Library",
    "address": "40 N Main St",
    "city": "Niles",
    "state": "OH",
    "zip": 44446,
    "seo": "",
    "hub": "AKR",
    "routeid": "21-10"
  },
  {
    "id": 303,
    "libid": "16700",
    "name": "North Baltimore P. L.",
    "address": "230 N Main Street",
    "city": "North Baltimore",
    "state": "OH",
    "zip": 45872,
    "seo": "NBA",
    "hub": "TOL",
    "routeid": "14-09"
  },
  {
    "id": 304,
    "libid": "16800",
    "name": "North Canton P. L.",
    "address": "185 N Main St",
    "city": "North Canton",
    "state": "OH",
    "zip": 44720,
    "seo": "",
    "hub": "AKR",
    "routeid": "20-21"
  },
  {
    "id": 305,
    "libid": "16900",
    "name": "Norwalk P. L.",
    "address": "46 W Main Street",
    "city": "Norwalk",
    "state": "OH",
    "zip": 44857,
    "seo": "",
    "hub": "CLE",
    "routeid": "11-21"
  },
  {
    "id": 306,
    "libid": "17000",
    "name": "Oak Harbor P. L.",
    "address": "147 W Main Street",
    "city": "Oak Harbor",
    "state": "OH",
    "zip": 43449,
    "seo": "OHH",
    "hub": "TOL",
    "routeid": "13-18"
  },
  {
    "id": 307,
    "libid": "17100",
    "name": "Oak Hill P. L.",
    "address": "226 S Front Street",
    "city": "Oak Hill",
    "state": "OH",
    "zip": 45656,
    "seo": "",
    "hub": "COL",
    "routeid": "03-14"
  },
  {
    "id": 308,
    "libid": "17200",
    "name": "Wright Memorial P. L.",
    "address": "1776 Far Hills Ave",
    "city": "Dayton",
    "state": "OH",
    "zip": 45419,
    "seo": "",
    "hub": "DAY",
    "routeid": "07-18"
  },
  {
    "id": 309,
    "libid": "17300",
    "name": "Oberlin P. L.",
    "address": "65 S Main Street",
    "city": "Oberlin",
    "state": "OH",
    "zip": 44074,
    "seo": "",
    "hub": "CLE",
    "routeid": "11-22"
  },
  {
    "id": 310,
    "libid": "17400",
    "name": "Orrville P. L.",
    "address": "230 N Main Street",
    "city": "Orrville",
    "state": "OH",
    "zip": 44667,
    "seo": "",
    "hub": "AKR",
    "routeid": "20-03"
  },
  {
    "id": 311,
    "libid": "17500",
    "name": "Grand Valley P. L.",
    "address": "1 N School Street",
    "city": "Orwell",
    "state": "OH",
    "zip": 44076,
    "seo": "GVP",
    "hub": "CLE",
    "routeid": "09-06"
  },
  {
    "id": 312,
    "libid": "17600",
    "name": "Putnam County District Library",
    "address": "136 Putnam Parkway",
    "city": "Ottawa",
    "state": "OH",
    "zip": 45875,
    "seo": "PTM",
    "hub": "TOL",
    "routeid": "14-11"
  },
  {
    "id": 313,
    "libid": "17600",
    "name": "Continental",
    "address": "136 Putnam Parkway",
    "city": "Ottawa",
    "state": "OH",
    "zip": 45875,
    "seo": "PTC",
    "hub": "TOL",
    "routeid": "14-11"
  },
  {
    "id": 314,
    "libid": "17600",
    "name": "Fort Jennings",
    "address": "136 Putnam Parkway",
    "city": "Ottawa",
    "state": "OH",
    "zip": 45875,
    "seo": "PTF",
    "hub": "TOL",
    "routeid": "14-11"
  },
  {
    "id": 315,
    "libid": "17600",
    "name": "Columbus Grove",
    "address": "136 Putnam Parkway",
    "city": "Ottawa",
    "state": "OH",
    "zip": 45875,
    "seo": "PTG",
    "hub": "TOL",
    "routeid": "14-11"
  },
  {
    "id": 316,
    "libid": "17600",
    "name": "Kalida",
    "address": "136 Putnam Parkway",
    "city": "Ottawa",
    "state": "OH",
    "zip": 45875,
    "seo": "PTK",
    "hub": "TOL",
    "routeid": "14-11"
  },
  {
    "id": 317,
    "libid": "17600",
    "name": "Leipsic",
    "address": "136 Putnam Parkway",
    "city": "Ottawa",
    "state": "OH",
    "zip": 45875,
    "seo": "PTL",
    "hub": "TOL",
    "routeid": "14-11"
  },
  {
    "id": 318,
    "libid": "17600",
    "name": "Ottoville",
    "address": "136 Putnam Parkway",
    "city": "Ottawa",
    "state": "OH",
    "zip": 45875,
    "seo": "PTO",
    "hub": "TOL",
    "routeid": "14-11"
  },
  {
    "id": 319,
    "libid": "17600",
    "name": "Pandora",
    "address": "136 Putnam Parkway",
    "city": "Ottawa",
    "state": "OH",
    "zip": 45875,
    "seo": "PTP",
    "hub": "TOL",
    "routeid": "14-11"
  },
  {
    "id": 320,
    "libid": "17700",
    "name": "Morley Library",
    "address": "184 Phelps St",
    "city": "Painesville",
    "state": "OH",
    "zip": 44077,
    "seo": "",
    "hub": "CLE",
    "routeid": "08-13"
  },
  {
    "id": 321,
    "libid": "17900",
    "name": "Paulding County Carnegie Library",
    "address": "205 S Main Street",
    "city": "Paulding",
    "state": "OH",
    "zip": 45879,
    "seo": "",
    "hub": "TOL",
    "routeid": "12-19"
  },
  {
    "id": 322,
    "libid": "18000",
    "name": "Pemberville P. L.",
    "address": "375 E Front St. PO Box 809",
    "city": "Pemberville",
    "state": "OH",
    "zip": 43450,
    "seo": "PEM",
    "hub": "TOL",
    "routeid": "14-02"
  },
  {
    "id": 323,
    "libid": "18000",
    "name": "Luckey Branch",
    "address": "375 E Front St. PO Box 809",
    "city": "Pemberville",
    "state": "OH",
    "zip": 43450,
    "seo": "PEL",
    "hub": "TOL",
    "routeid": "14-02"
  },
  {
    "id": 324,
    "libid": "18000",
    "name": "Stony Ridge Branch",
    "address": "375 E Front St. PO Box 809",
    "city": "Pemberville",
    "state": "OH",
    "zip": 43450,
    "seo": "PES",
    "hub": "TOL",
    "routeid": "14-02"
  },
  {
    "id": 325,
    "libid": "18100",
    "name": "Peninsula Library",
    "address": "6105 Riverview Rd; Box 236",
    "city": "Peninsula",
    "state": "OH",
    "zip": 44264,
    "seo": "",
    "hub": "AKR",
    "routeid": "21-22"
  },
  {
    "id": 326,
    "libid": "18120",
    "name": "North Central Correctional Complex",
    "address": "670 Marion-Williamsport Rd E.",
    "city": "Marion",
    "state": "OH",
    "zip": 43301,
    "seo": "",
    "hub": "COL",
    "routeid": "17-18"
  },
  {
    "id": 327,
    "libid": "18200",
    "name": "Perry Public Library",
    "address": "3753 Main Street",
    "city": "Perry",
    "state": "OH",
    "zip": 44081,
    "seo": "",
    "hub": "COL",
    "routeid": "04-11"
  },
  {
    "id": 328,
    "libid": "18300",
    "name": "Way P. L.",
    "address": "101 E. Indiana Avenue",
    "city": "Perrysburg",
    "state": "OH",
    "zip": 43551,
    "seo": "WAY",
    "hub": "TOL",
    "routeid": "13-02"
  },
  {
    "id": 329,
    "libid": "18500",
    "name": "Piqua P. L.",
    "address": "116 W. High St.",
    "city": "Piqua",
    "state": "OH",
    "zip": 45356,
    "seo": "",
    "hub": "DAY",
    "routeid": "15-19"
  },
  {
    "id": 330,
    "libid": "18700",
    "name": "Meigs County District Library",
    "address": "216 W Main Street",
    "city": "Pomeroy",
    "state": "OH",
    "zip": 45769,
    "seo": "",
    "hub": "COL",
    "routeid": "3-18"
  },
  {
    "id": 331,
    "libid": "18800",
    "name": "Port Clinton P. L. (Ida Rupp)",
    "address": "310 Madison Street",
    "city": "Port Clinton",
    "state": "OH",
    "zip": 43452,
    "seo": "PCL",
    "hub": "TOL",
    "routeid": "13-17"
  },
  {
    "id": 332,
    "libid": "18800",
    "name": "Erie Islands Branch",
    "address": "310 Madison Street",
    "city": "Port Clinton",
    "state": "OH",
    "zip": 43452,
    "seo": "PCE",
    "hub": "TOL",
    "routeid": "13-17"
  },
  {
    "id": 333,
    "libid": "18801",
    "name": "Marblehead Peninsula Branch Library",
    "address": "710 W. Main Street",
    "city": "Marblehead",
    "state": "OH",
    "zip": 43440,
    "seo": "PCM",
    "hub": "TOL",
    "routeid": "13-16"
  },
  {
    "id": 334,
    "libid": "18900",
    "name": "Portsmouth P. L.",
    "address": "1220 Gallia Street",
    "city": "Portsmouth",
    "state": "OH",
    "zip": 45662,
    "seo": "",
    "hub": "COL",
    "routeid": "03-04"
  },
  {
    "id": 335,
    "libid": "19100",
    "name": "Richwood-North Union Public Library",
    "address": "4 E. Ottawa Street",
    "city": "Richwood",
    "state": "OH",
    "zip": 43344,
    "seo": "RNU",
    "hub": "COL",
    "routeid": "17-10"
  },
  {
    "id": 336,
    "libid": "19200",
    "name": "Union Township P. L.",
    "address": "27 Main St",
    "city": "Ripley",
    "state": "OH",
    "zip": 45167,
    "seo": "UTP",
    "hub": "CIN",
    "routeid": "01-16"
  },
  {
    "id": 337,
    "libid": "19200",
    "name": "Russellville Branch Library",
    "address": "27 Main St",
    "city": "Ripley",
    "state": "OH",
    "zip": 45167,
    "seo": "UTR",
    "hub": "CIN",
    "routeid": "01-16"
  },
  {
    "id": 338,
    "libid": "19299",
    "name": "Aberdeen Branch",
    "address": "1730 US 52 W",
    "city": "Aberdeen",
    "state": "OH",
    "zip": 45101,
    "seo": "UTA",
    "hub": "CIN",
    "routeid": "01-20"
  },
  {
    "id": 339,
    "libid": "19300",
    "name": "Rock Creek P. L.",
    "address": "2988 High Street",
    "city": "Rock Creek",
    "state": "OH",
    "zip": 44084,
    "seo": "",
    "hub": "CLE",
    "routeid": "08-02"
  },
  {
    "id": 340,
    "libid": "19400",
    "name": "Rockford Carnegie Library",
    "address": "162 S Main ; PO Box 330",
    "city": "Rockford",
    "state": "OH",
    "zip": 45882,
    "seo": "ROC",
    "hub": "DAY",
    "routeid": "15-07"
  },
  {
    "id": 341,
    "libid": "19500",
    "name": "Rocky River P. L.",
    "address": "1600 Hampton Road",
    "city": "Rocky River",
    "state": "OH",
    "zip": 44116,
    "seo": "",
    "hub": "CLE",
    "routeid": "10-20"
  },
  {
    "id": 342,
    "libid": "19600",
    "name": "Rossford P. L.",
    "address": "720 Dixie Highway",
    "city": "Rossford",
    "state": "OH",
    "zip": 43460,
    "seo": "ROS",
    "hub": "TOL",
    "routeid": "13-01"
  },
  {
    "id": 343,
    "libid": "19700",
    "name": "Sabina P. L.",
    "address": "11 E Elm Street",
    "city": "Sabina",
    "state": "OH",
    "zip": 45169,
    "seo": "",
    "hub": "CIN",
    "routeid": "02-13"
  },
  {
    "id": 344,
    "libid": "19800",
    "name": "Salem P. L.",
    "address": "821 E State Street",
    "city": "Salem",
    "state": "OH",
    "zip": 44460,
    "seo": "",
    "hub": "AKR",
    "routeid": "20-14"
  },
  {
    "id": 345,
    "libid": "19900",
    "name": "Sandusky Library",
    "address": "114 W Adams St",
    "city": "Sandusky",
    "state": "OH",
    "zip": 44870,
    "seo": "",
    "hub": "CLE",
    "routeid": "10-11"
  },
  {
    "id": 346,
    "libid": "20000",
    "name": "Shaker Heights P. L.",
    "address": "16500 Van Aken Blvd",
    "city": "Shaker Hts",
    "state": "OH",
    "zip": 44120,
    "seo": "",
    "hub": "CLE",
    "routeid": "09-25"
  },
  {
    "id": 347,
    "libid": "20200",
    "name": "Marvin Memorial Library",
    "address": "29 W Whitney Ave.",
    "city": "Shelby",
    "state": "OH",
    "zip": 44875,
    "seo": "",
    "hub": "COL",
    "routeid": "18-10"
  },
  {
    "id": 348,
    "libid": "20400",
    "name": "Clark Co. P.L.",
    "address": "201 S. Fountain Ave.",
    "city": "Springfield",
    "state": "OH",
    "zip": 45506,
    "seo": "",
    "hub": "DAY",
    "routeid": "16-02"
  },
  {
    "id": 349,
    "libid": "20500",
    "name": "St Clairsville P. L.",
    "address": "108 West Main Street",
    "city": "St Clairsville",
    "state": "OH",
    "zip": 43950,
    "seo": "STC",
    "hub": "CAM",
    "routeid": "05-06"
  },
  {
    "id": 350,
    "libid": "20500",
    "name": "St Clairsville Curbside",
    "address": "108 West Main Street",
    "city": "St Clairsville",
    "state": "OH",
    "zip": 43950,
    "seo": "SCC",
    "hub": "CAM",
    "routeid": "05-06"
  },
  {
    "id": 351,
    "libid": "20600",
    "name": "St Marys Community Library",
    "address": "140 South Chestnut Street",
    "city": "St Marys",
    "state": "OH",
    "zip": 45885,
    "seo": "SMA",
    "hub": "DAY",
    "routeid": "15-10"
  },
  {
    "id": 352,
    "libid": "20600",
    "name": "St Marys Lockers",
    "address": "140 South Chestnut Street",
    "city": "St Marys",
    "state": "OH",
    "zip": 45885,
    "seo": "SML",
    "hub": "DAY",
    "routeid": "15-10"
  },
  {
    "id": 353,
    "libid": "20800",
    "name": "Steubenville & Jefferson Co. P. L.",
    "address": "407 S 4th Street",
    "city": "Steubenville",
    "state": "OH",
    "zip": 43952,
    "seo": "STE",
    "hub": "CAM",
    "routeid": "06-11"
  },
  {
    "id": 354,
    "libid": "20800",
    "name": "Steubenville Bookmobile",
    "address": "407 S 4th Street",
    "city": "Steubenville",
    "state": "OH",
    "zip": 43952,
    "seo": "STK",
    "hub": "CAM",
    "routeid": "06-11"
  },
  {
    "id": 355,
    "libid": "20803",
    "name": "Adena Branch",
    "address": "167 Hanna Ave.",
    "city": "Adena",
    "state": "OH",
    "zip": 43901,
    "seo": "STA",
    "hub": "CAM",
    "routeid": "06-15"
  },
  {
    "id": 356,
    "libid": "20804",
    "name": "Brilliant Branch",
    "address": "103 Steuben Street",
    "city": "Brilliant",
    "state": "OH",
    "zip": 43913,
    "seo": "STB",
    "hub": "CAM",
    "routeid": "06-12"
  },
  {
    "id": 357,
    "libid": "20805",
    "name": "Dillonvale-Mt. Pleasant Branch",
    "address": "192 Cole Street",
    "city": "Dillonvale",
    "state": "OH",
    "zip": 43917,
    "seo": "STD",
    "hub": "CAM",
    "routeid": "06-14"
  },
  {
    "id": 358,
    "libid": "20807",
    "name": "Schiappa Branch",
    "address": "4141 Mall Drive",
    "city": "Steubenville",
    "state": "OH",
    "zip": 43952,
    "seo": "STS",
    "hub": "CAM",
    "routeid": "06-08"
  },
  {
    "id": 359,
    "libid": "20808",
    "name": "Tiltonsville Branch",
    "address": "702 Walden Ave",
    "city": "Tiltonsville",
    "state": "OH",
    "zip": 43963,
    "seo": "STL",
    "hub": "CAM",
    "routeid": "06-13"
  },
  {
    "id": 360,
    "libid": "20809",
    "name": "Toronto Branch",
    "address": "607 Daniels Street",
    "city": "Toronto",
    "state": "OH",
    "zip": 43964,
    "seo": "STT",
    "hub": "CAM",
    "routeid": "06-09"
  },
  {
    "id": 361,
    "libid": "20900",
    "name": "Stow-Munroe Falls P. L.",
    "address": "3512 Darrow Road",
    "city": "Stow",
    "state": "OH",
    "zip": 44224,
    "seo": "",
    "hub": "AKR",
    "routeid": "21-01"
  },
  {
    "id": 362,
    "libid": "21000",
    "name": "Sunbury Community Library",
    "address": "44 Burrer Dr",
    "city": "Sunbury",
    "state": "OH",
    "zip": 43074,
    "seo": "",
    "hub": "COL",
    "routeid": "18-04"
  },
  {
    "id": 363,
    "libid": "21100",
    "name": "Swanton P. L.",
    "address": "305 Chestnut Street",
    "city": "Swanton",
    "state": "OH",
    "zip": 43558,
    "seo": "",
    "hub": "TOL",
    "routeid": "12-16"
  },
  {
    "id": 364,
    "libid": "21300",
    "name": "Tiffin-Seneca P. L.",
    "address": "77 Jefferson Street",
    "city": "Tiffin",
    "state": "OH",
    "zip": 44883,
    "seo": "TIF",
    "hub": "TOL",
    "routeid": "13-10"
  },
  {
    "id": 365,
    "libid": "21400",
    "name": "Tipp City P. L.",
    "address": "11 E Main Street",
    "city": "Tipp City",
    "state": "OH",
    "zip": 45371,
    "seo": "TCP",
    "hub": "DAY",
    "routeid": "15-18"
  },
  {
    "id": 366,
    "libid": "21500",
    "name": "Toledo Lucas County P. L.",
    "address": "325 Michigan St",
    "city": "Toledo",
    "state": "OH",
    "zip": 43604,
    "seo": "",
    "hub": "TOL",
    "routeid": "12-01"
  },
  {
    "id": 367,
    "libid": "21600",
    "name": "Troy-Miami County Public Library",
    "address": "419 W. Main St.",
    "city": "Troy",
    "state": "OH",
    "zip": 45373,
    "seo": "",
    "hub": "DAY",
    "routeid": "15-01"
  },
  {
    "id": 368,
    "libid": "21700",
    "name": "Twinsburg P. L.",
    "address": "10050 Ravenna Rd",
    "city": "Twinsburg",
    "state": "OH",
    "zip": 44087,
    "seo": "",
    "hub": "CLE",
    "routeid": "11-04"
  },
  {
    "id": 369,
    "libid": "21900",
    "name": "Upper Sandusky Comm. Lib.",
    "address": "301 N Sandusky Ave",
    "city": "Upper Sandusky",
    "state": "OH",
    "zip": 43351,
    "seo": "USC",
    "hub": "COL",
    "routeid": "17-08"
  },
  {
    "id": 370,
    "libid": "22000",
    "name": "Champaign County Library",
    "address": "1060 Scioto Street",
    "city": "Urbana",
    "state": "OH",
    "zip": 43078,
    "seo": "",
    "hub": "DAY",
    "routeid": "16-05"
  },
  {
    "id": 371,
    "libid": "22100",
    "name": "Brumback Library",
    "address": "215 W Main Street",
    "city": "Van Wert",
    "state": "OH",
    "zip": 45891,
    "seo": "",
    "hub": "DAY",
    "routeid": "15-21"
  },
  {
    "id": 372,
    "libid": "22200",
    "name": "Ritter P. L.",
    "address": "5680 Liberty Avenue",
    "city": "Vermilion",
    "state": "OH",
    "zip": 44089,
    "seo": "",
    "hub": "CLE",
    "routeid": "10-10"
  },
  {
    "id": 373,
    "libid": "22300",
    "name": "Worch Memorial P. L.",
    "address": "790 S. Center St.",
    "city": "Versailles",
    "state": "OH",
    "zip": 45380,
    "seo": "",
    "hub": "DAY",
    "routeid": "15-28"
  },
  {
    "id": 374,
    "libid": "22400",
    "name": "Wadsworth P. L.",
    "address": "132 Broad Street",
    "city": "Wadsworth",
    "state": "OH",
    "zip": 44281,
    "seo": "",
    "hub": "AKR",
    "routeid": "20-02"
  },
  {
    "id": 375,
    "libid": "22500",
    "name": "Auglaize Co Pub Dist Lib",
    "address": "203 S Perry St",
    "city": "Wapakoneta",
    "state": "OH",
    "zip": 45895,
    "seo": "",
    "hub": "DAY",
    "routeid": "15-03"
  },
  {
    "id": 376,
    "libid": "22504",
    "name": "Stallo Memorial Branch",
    "address": "196 E. 4th Street",
    "city": "Minster",
    "state": "OH",
    "zip": 45865,
    "seo": "",
    "hub": "DAY",
    "routeid": "15-19"
  },
  {
    "id": 377,
    "libid": "22505",
    "name": "New Bremen P. L.",
    "address": "45 S. Washington Street",
    "city": "New Bremen",
    "state": "OH",
    "zip": 45869,
    "seo": "",
    "hub": "DAY",
    "routeid": "15-20"
  },
  {
    "id": 378,
    "libid": "22600",
    "name": "Warren-Trumbull County P. L.",
    "address": "444 Mahoning Avenue NW",
    "city": "Warren",
    "state": "OH",
    "zip": 44483,
    "seo": "",
    "hub": "AKR",
    "routeid": "21-11"
  },
  {
    "id": 379,
    "libid": "22700",
    "name": "Carnegie P/L Washington C. H.",
    "address": "127 S North St",
    "city": "Washington C H",
    "state": "OH",
    "zip": 43160,
    "seo": "WCH",
    "hub": "CIN",
    "routeid": "02-03"
  },
  {
    "id": 380,
    "libid": "22800",
    "name": "Wauseon P. L.",
    "address": "117 E Elm Street",
    "city": "Wauseon",
    "state": "OH",
    "zip": 43567,
    "seo": "WPL",
    "hub": "TOL",
    "routeid": "12-07"
  },
  {
    "id": 381,
    "libid": "22900",
    "name": "Garnet A Wilson P. L. of Pike Co.",
    "address": "207 N Market Street",
    "city": "Waverly",
    "state": "OH",
    "zip": 45690,
    "seo": "GWM",
    "hub": "COL",
    "routeid": "03-19"
  },
  {
    "id": 382,
    "libid": "22900",
    "name": "Eastern Branch Library [Beaver]",
    "address": "207 N Market Street",
    "city": "Waverly",
    "state": "OH",
    "zip": 45690,
    "seo": "GWE",
    "hub": "COL",
    "routeid": "03-19"
  },
  {
    "id": 383,
    "libid": "22900",
    "name": "Piketon Branch Library",
    "address": "207 N Market Street",
    "city": "Waverly",
    "state": "OH",
    "zip": 45690,
    "seo": "GWP",
    "hub": "COL",
    "routeid": "03-19"
  },
  {
    "id": 384,
    "libid": "22900",
    "name": "Western Branch Library [Lathem]",
    "address": "207 N Market Street",
    "city": "Waverly",
    "state": "OH",
    "zip": 45690,
    "seo": "GWW",
    "hub": "COL",
    "routeid": "03-19"
  },
  {
    "id": 385,
    "libid": "23000",
    "name": "Wayne P. L.",
    "address": "137 E Main; P.O. Box 489",
    "city": "Wayne",
    "state": "OH",
    "zip": 43466,
    "seo": "WNE",
    "hub": "TOL",
    "routeid": "14-03"
  },
  {
    "id": 386,
    "libid": "23100",
    "name": "Mary L Cook P. L.",
    "address": "381 Old Stage Road",
    "city": "Waynesville",
    "state": "OH",
    "zip": 45068,
    "seo": "",
    "hub": "CIN",
    "routeid": "02-02"
  },
  {
    "id": 387,
    "libid": "23200",
    "name": "Herrick Memorial Library",
    "address": "101 Willard Memorial Square",
    "city": "Wellington",
    "state": "OH",
    "zip": 44090,
    "seo": "",
    "hub": "CLE",
    "routeid": "11-25"
  },
  {
    "id": 388,
    "libid": "23300",
    "name": "Sylvester Memorial Wellston P. L.",
    "address": "135 East Second St",
    "city": "Wellston",
    "state": "OH",
    "zip": 45692,
    "seo": "",
    "hub": "COL",
    "routeid": "03-16"
  },
  {
    "id": 389,
    "libid": "23400",
    "name": "Wellsville Carnegie P. L.",
    "address": "115 Ninth Street",
    "city": "Wellsville",
    "state": "OH",
    "zip": 43968,
    "seo": "",
    "hub": "AKR",
    "routeid": "20-26"
  },
  {
    "id": 390,
    "libid": "23500",
    "name": "Hurt/Battelle Memorial Library",
    "address": "270 Lilly Chapel Rd",
    "city": "West Jefferson",
    "state": "OH",
    "zip": 43162,
    "seo": "",
    "hub": "COL",
    "routeid": "17-11"
  },
  {
    "id": 391,
    "libid": "23600",
    "name": "Milton Union P. L.",
    "address": "560 S Main Street",
    "city": "West Milton",
    "state": "OH",
    "zip": 45383,
    "seo": "MIL",
    "hub": "DAY",
    "routeid": "15-17"
  },
  {
    "id": 392,
    "libid": "23700",
    "name": "Westerville Public Library",
    "address": "126 S. State St.",
    "city": "Westerville",
    "state": "OH",
    "zip": 43081,
    "seo": "",
    "hub": "COL",
    "routeid": "18-03"
  },
  {
    "id": 393,
    "libid": "23800",
    "name": "Porter P. L.",
    "address": "27333 Center Ridge Road",
    "city": "Westlake",
    "state": "OH",
    "zip": 44145,
    "seo": "",
    "hub": "CLE",
    "routeid": "10-16"
  },
  {
    "id": 394,
    "libid": "23900",
    "name": "Weston P. L.",
    "address": "13153 Main St; PO Box 345",
    "city": "Weston",
    "state": "OH",
    "zip": 43569,
    "seo": "WES",
    "hub": "TOL",
    "routeid": "14-13"
  },
  {
    "id": 395,
    "libid": "23903",
    "name": "Grand Rapids Branch Library",
    "address": "17620 Bridge Street",
    "city": "Grand Rapids",
    "state": "OH",
    "zip": 43522,
    "seo": "WEG",
    "hub": "TOL",
    "routeid": "14-17"
  },
  {
    "id": 396,
    "libid": "24000",
    "name": "Wickliffe P. L.",
    "address": "1713 Lincoln Road",
    "city": "Wickliffe",
    "state": "OH",
    "zip": 44092,
    "seo": "",
    "hub": "CLE",
    "routeid": "08-22"
  },
  {
    "id": 397,
    "libid": "24100",
    "name": "Huron County Community Library (Willard)",
    "address": "6 W Emerald St",
    "city": "Willard",
    "state": "OH",
    "zip": 44890,
    "seo": "WIL",
    "hub": "TOL",
    "routeid": "13-14"
  },
  {
    "id": 398,
    "libid": "24103",
    "name": "Greenwich - (Huron County Community Library)",
    "address": "4 New Street",
    "city": "Greenwich",
    "state": "OH",
    "zip": 44837,
    "seo": "WIG",
    "hub": "TOL",
    "routeid": "13-21"
  },
  {
    "id": 399,
    "libid": "24104",
    "name": "North Fairfield- (Huron County Community Library)",
    "address": "5 E. Main St.",
    "city": "North Fairfield",
    "state": "OH",
    "zip": 44855,
    "seo": "WIN",
    "hub": "TOL",
    "routeid": "13-22"
  },
  {
    "id": 400,
    "libid": "24105",
    "name": "Wakeman - (Huron County Community Library)",
    "address": "33 Pleasant St.",
    "city": "Wakeman",
    "state": "OH",
    "zip": 44889,
    "seo": "WIW",
    "hub": "CLE",
    "routeid": "11-27"
  },
  {
    "id": 401,
    "libid": "24200",
    "name": "Willoughby-Eastlake P. L.",
    "address": "35150 Lakeshore Blvd.",
    "city": "Eastlake",
    "state": "OH",
    "zip": 44095,
    "seo": "",
    "hub": "CLE",
    "routeid": "08-17"
  },
  {
    "id": 402,
    "libid": "24300",
    "name": "Wilmington P. L. of Clinton Co.",
    "address": "268 N South Street",
    "city": "Wilmington",
    "state": "OH",
    "zip": 45177,
    "seo": "",
    "hub": "CIN",
    "routeid": "02-06"
  },
  {
    "id": 403,
    "libid": "24400",
    "name": "Monroe County District Library",
    "address": "96 Home Avenue",
    "city": "Woodsfield",
    "state": "OH",
    "zip": 43793,
    "seo": "MON",
    "hub": "CAM",
    "routeid": "05-11"
  },
  {
    "id": 404,
    "libid": "24500",
    "name": "Wayne County P. L. (Wooster)",
    "address": "220 West Liberty Street",
    "city": "Wooster",
    "state": "OH",
    "zip": 44691,
    "seo": "",
    "hub": "AKR",
    "routeid": "20-06"
  },
  {
    "id": 405,
    "libid": "24700",
    "name": "Greene County P. L.",
    "address": "2656 Indian Ripple Road",
    "city": "Beavercreek",
    "state": "OH",
    "zip": 45440,
    "seo": "",
    "hub": "DAY",
    "routeid": "07-06"
  },
  {
    "id": 406,
    "libid": "24800",
    "name": "Youngstown-Mahoning",
    "address": "305 Wick Avenue",
    "city": "Youngstown",
    "state": "OH",
    "zip": 44503,
    "seo": "",
    "hub": "AKR",
    "routeid": "21-05"
  },
  {
    "id": 407,
    "libid": "25000",
    "name": "Muskingum Co. Lib. System",
    "address": "220 N Fifth Street",
    "city": "Zanesville",
    "state": "OH",
    "zip": 43701,
    "seo": "",
    "hub": "CAM",
    "routeid": "05-25"
  },
  {
    "id": 408,
    "libid": "28000",
    "name": "State Library of Ohio",
    "address": "274 E First Ave",
    "city": "Columbus",
    "state": "OH",
    "zip": 43201,
    "seo": "",
    "hub": "COL",
    "routeid": "17-16"
  },
  {
    "id": 409,
    "libid": "28002",
    "name": "SEO Service Center",
    "address": "40780 Marietta Rd",
    "city": "Caldwell",
    "state": "OH",
    "zip": 43724,
    "seo": "SEO",
    "hub": "CAM",
    "routeid": "05-20"
  },
  {
    "id": 410,
    "libid": "29005",
    "name": "NORWELD - NW Lib. Dist.",
    "address": "181 1/2 S Main Street",
    "city": "Bowling Green",
    "state": "OH",
    "zip": 43402,
    "seo": "",
    "hub": "TOL",
    "routeid": "14-16"
  },
  {
    "id": 411,
    "libid": "29009",
    "name": "Dally Memorial Library",
    "address": "37252 Mound Street",
    "city": "Sardis",
    "state": "OH",
    "zip": 43946,
    "seo": "MOS",
    "hub": "CAM",
    "routeid": "05-27"
  },
  {
    "id": 412,
    "libid": "29010",
    "name": "Crossroads Branch (Guernsey Co)",
    "address": "63500 Byesville Rd",
    "city": "Cambridge",
    "state": "OH",
    "zip": 43725,
    "seo": "GCT",
    "hub": "CAM",
    "routeid": "05-29"
  },
  {
    "id": 413,
    "libid": "29010",
    "name": "Guernsey County Outreach",
    "address": "63500 Byesville Rd",
    "city": "Cambridge",
    "state": "OH",
    "zip": 43725,
    "seo": "GCO",
    "hub": "CAM",
    "routeid": "05-29"
  },
  {
    "id": 414,
    "libid": "29010",
    "name": "Guernsey - Byesville Branch",
    "address": "63500 Byesville Rd",
    "city": "Cambridge",
    "state": "OH",
    "zip": 43725,
    "seo": "GCO",
    "hub": "CAM",
    "routeid": "05-29"
  },
  {
    "id": 415,
    "libid": "31578",
    "name": "Eaton Community Schools (Bruce Elem)",
    "address": "506 B Aukerman St.",
    "city": "Eaton",
    "state": "OH",
    "zip": 45320,
    "seo": "ESB",
    "hub": "DAY",
    "routeid": "07-24"
  },
  {
    "id": 416,
    "libid": "31578",
    "name": "Eaton Schools-East Elementary",
    "address": "506 B Aukerman St.",
    "city": "Eaton",
    "state": "OH",
    "zip": 45320,
    "seo": "ESE",
    "hub": "DAY",
    "routeid": "07-24"
  },
  {
    "id": 417,
    "libid": "31578",
    "name": "Eaton High School",
    "address": "506 B Aukerman St.",
    "city": "Eaton",
    "state": "OH",
    "zip": 45320,
    "seo": "ESH",
    "hub": "DAY",
    "routeid": "07-24"
  },
  {
    "id": 418,
    "libid": "31578",
    "name": "Eaton Middle School",
    "address": "506 B Aukerman St.",
    "city": "Eaton",
    "state": "OH",
    "zip": 45320,
    "seo": "ESM",
    "hub": "DAY",
    "routeid": "07-24"
  },
  {
    "id": 419,
    "libid": "34264",
    "name": "Preble Shawnee Local Schools",
    "address": "5495 Somers Gratis Rd",
    "city": "Camden",
    "state": "OH",
    "zip": 45311,
    "seo": "PSS",
    "hub": "DAY",
    "routeid": "07-26"
  },
  {
    "id": 420,
    "libid": "34264",
    "name": "Preble Shawnee Schools-Camden",
    "address": "5495 Somers Gratis Rd",
    "city": "Camden",
    "state": "OH",
    "zip": 45311,
    "seo": "PSC",
    "hub": "DAY",
    "routeid": "07-26"
  },
  {
    "id": 421,
    "libid": "34264",
    "name": "Preble Shawnee Schools-Jr. High",
    "address": "5495 Somers Gratis Rd",
    "city": "Camden",
    "state": "OH",
    "zip": 45311,
    "seo": "PSJ",
    "hub": "DAY",
    "routeid": "07-26"
  },
  {
    "id": 422,
    "libid": "34264",
    "name": "Preble Shawnee Schools-West Elkton",
    "address": "5495 Somers Gratis Rd",
    "city": "Camden",
    "state": "OH",
    "zip": 45311,
    "seo": "PSW",
    "hub": "DAY",
    "routeid": "07-26"
  },
  {
    "id": 423,
    "libid": "34595",
    "name": "Jefferson Area HS Library",
    "address": "207 W. Mulberry St.",
    "city": "Jefferson",
    "state": "OH",
    "zip": 44047,
    "seo": "ADF",
    "hub": "CLE",
    "routeid": "08-19"
  },
  {
    "id": 424,
    "libid": "37705",
    "name": "Twin Valley Community Schools",
    "address": "100 Education Drive",
    "city": "West Alexandria",
    "state": "OH",
    "zip": 45381,
    "seo": "TVA",
    "hub": "DAY",
    "routeid": "07-23"
  },
  {
    "id": 425,
    "libid": "40340",
    "name": "A-Tech",
    "address": "1565 St. Rt. 167",
    "city": "Jefferson",
    "state": "OH",
    "zip": 44047,
    "seo": "ADT",
    "hub": "CLE",
    "routeid": "08-04"
  },
  {
    "id": 426,
    "libid": "50953",
    "name": "St. John School",
    "address": "7911 Depot Rd.",
    "city": "Ashtabula",
    "state": "OH",
    "zip": 44004,
    "seo": "ADS",
    "hub": "CLE",
    "routeid": "08-20"
  },
  {
    "id": 427,
    "libid": "80800",
    "name": "Chatfield College",
    "address": "20918 State Route 251",
    "city": "St Martin",
    "state": "OH",
    "zip": 45118,
    "seo": "OCC",
    "hub": "CIN",
    "routeid": "02-17"
  },
  {
    "id": 428,
    "libid": "90003",
    "name": "Holden Arboretum",
    "address": "9500 Sperry Road",
    "city": "Kirtland",
    "state": "OH",
    "zip": 44094,
    "seo": "",
    "hub": "",
    "routeid": ""
  },
  {
    "id": 429,
    "libid": "97002",
    "name": "Marion Lawrence Memorial Library (Gratis Public library)",
    "address": "15 Franklin Street",
    "city": "Gratis",
    "state": "OH",
    "zip": 45330,
    "seo": "GTS",
    "hub": "DAY",
    "routeid": "07-25"
  }
]
